geonames_id,city_name,toponym_name,lat,lon,pop,country_name,country_code,un_country_code,region_code,region_name,continent_code,continent_name,capital,global_north,global_south,east,west
1138336,Kandahar,Kandahār,31.61332,65.71013,391190,Afghanistan,AF,4,34,Southern Asia,AS,Asia,,,1,1,
1138958,Kabul,Kabul,34.52813,69.17233,3043532,Afghanistan,AF,4,34,Southern Asia,AS,Asia,1,,1,1,
3041732,Mariehamn,Mariehamn,60.09726,19.93481,10682,Åland,AX,248,154,Northern Europe,EU,Europe,1,1,,1,
3183875,Tirana,Tirana,41.3275,19.81889,374801,Albania,AL,8,39,Southern Europe,EU,Europe,1,1,,1,
3185728,Durrës,Durrës,41.32306,19.44139,122034,Albania,AL,8,39,Southern Europe,EU,Europe,,1,,1,
2485926,Oran,Oran,35.69111,-0.64167,645984,Algeria,DZ,12,15,Northern Africa,AF,Africa,,,1,1,
2507480,Algiers,Algiers,36.7525,3.04197,1977663,Algeria,DZ,12,15,Northern Africa,AF,Africa,1,,1,1,
5881576,Pago Pago,Pago Pago,-14.27806,-170.7025,11500,American Samoa,AS,16,61,Polynesia,OC,Oceania,1,,1,1,1
3041563,Andorra la Vella,Andorra la Vella,42.50779,1.52109,20430,Andorra,AD,20,39,Southern Europe,EU,Europe,1,1,,1,
2240449,Luanda,Luanda,-8.83682,13.23432,2776168,Angola,AO,24,17,Middle Africa,AF,Africa,,,1,1,
2243271,Cabinda,Cabinda,-5.55,12.2,66020,Angola,AO,24,17,Middle Africa,AF,Africa,,,1,1,
3573374,The Valley,The Valley,18.21704,-63.05783,2035,Anguilla,AI,660,29,Caribbean,SA,South America,1,,1,,1
3576022,St. John's,Saint John’s,17.11717,-61.84573,24226,Antigua and Barbuda,AG,28,29,Caribbean,SA,South America,1,,1,,1
3836873,San Miguel de Tucumán,San Miguel de Tucumán,-26.82414,-65.2226,781023,Argentina,AR,32,5,South America,SA,South America,,,1,,1
3838583,Rosario,Rosario,-32.94682,-60.63932,1173533,Argentina,AR,32,5,South America,SA,South America,,,1,,1
3844421,Mendoza,Mendoza,-32.89084,-68.82717,876884,Argentina,AR,32,5,South America,SA,South America,,,1,,1
3430863,Mar del Plata,Mar del Plata,-38.00228,-57.55754,553935,Argentina,AR,32,5,South America,SA,South America,,,1,,1
3432043,La Plata,La Plata,-34.92145,-57.95453,694167,Argentina,AR,32,5,South America,SA,South America,,,1,,1
3860259,Córdoba,Córdoba,-31.4135,-64.18105,1428214,Argentina,AR,32,5,South America,SA,South America,,,1,,1
3435910,Buenos Aires,Buenos Aires,-34.61315,-58.37723,13076300,Argentina,AR,32,5,South America,SA,South America,1,,1,,1
616052,Yerevan,Yerevan,40.18111,44.51361,1093485,Armenia,AM,51,145,Western Asia,AS,Asia,1,,1,1,
616635,Gyumri,Gyumri,40.7942,43.84528,148381,Armenia,AM,51,145,Western Asia,AS,Asia,,,1,1,
3577154,Oranjestad,Oranjestad,12.52398,-70.02703,29998,Aruba,AW,533,29,Caribbean,SA,South America,1,,1,,1
2147714,Sydney,Sydney,-33.86785,151.20732,4627345,Australia,AU,36,53,Australia and New Zealand,OC,Oceania,,1,,1,
2063523,Perth,Perth,-31.95224,115.8614,1896548,Australia,AU,36,53,Australia and New Zealand,OC,Oceania,,1,,1,
2158177,Melbourne,Melbourne,-37.814,144.96332,4246375,Australia,AU,36,53,Australia and New Zealand,OC,Oceania,,1,,1,
2172517,Canberra,Canberra,-35.28346,149.12807,367752,Australia,AU,36,53,Australia and New Zealand,OC,Oceania,1,1,,1,
2174003,Brisbane,Brisbane,-27.46794,153.02809,2189878,Australia,AU,36,53,Australia and New Zealand,OC,Oceania,,1,,1,
2078025,Adelaide,Adelaide,-34.92866,138.59863,1225235,Australia,AU,36,53,Australia and New Zealand,OC,Oceania,,1,,1,
2761369,Vienna,Vienna,48.20849,16.37208,1691468,Austria,AT,40,155,Western Europe,EU,Europe,1,1,,1,
2778067,Graz,Graz,47.06667,15.45,222326,Austria,AT,40,155,Western Europe,EU,Europe,,1,,1,
584923,Sumqayit,Sumqayıt,40.58972,49.66861,265150,Azerbaijan,AZ,31,145,Western Asia,AS,Asia,,,1,1,
585514,Mingachevir,Mingelchaur,40.76395,47.05953,95453,Azerbaijan,AZ,31,145,Western Asia,AS,Asia,,,1,1,
586523,Gǝncǝ,Ganja,40.68278,46.36056,313300,Azerbaijan,AZ,31,145,Western Asia,AS,Asia,,,1,1,
587084,Baku,Baku,40.37767,49.89201,1116513,Azerbaijan,AZ,31,145,Western Asia,AS,Asia,1,,1,1,
3571824,Nassau,Nassau,25.05823,-77.34306,227940,Bahamas,BS,44,29,Caribbean,SA,South America,1,,1,,1
290340,Manama,Manama,26.21536,50.5832,147074,Bahrain,BH,48,145,Western Asia,AS,Asia,1,,1,1,
385038,Ar Rifā‘,Ar Rifā‘,26.13,50.555,79550,Bahrain,BH,48,145,Western Asia,AS,Asia,,,1,1,
1185098,Tongi,Tungi,23.89154,90.40232,337579,Bangladesh,BD,50,34,Southern Asia,AS,Asia,,,1,1,
1185099,Sylhet,Sylhet,24.89904,91.87198,237000,Bangladesh,BD,50,34,Southern Asia,AS,Asia,,,1,1,
1185128,Rajshahi,Rājshāhi,24.374,88.60114,700133,Bangladesh,BD,50,34,Southern Asia,AS,Asia,,,1,1,
1185155,Nārāyanganj,Nārāyanganj,23.61352,90.50298,223622,Bangladesh,BD,50,34,Southern Asia,AS,Asia,,,1,1,
1336135,Khulna,Khulna,22.80978,89.56439,1342339,Bangladesh,BD,50,34,Southern Asia,AS,Asia,,,1,1,
1185241,Dhaka,Dhaka,23.7104,90.40744,10356500,Bangladesh,BD,50,34,Southern Asia,AS,Asia,1,,1,1,
1185186,Comilla,Comilla,23.46186,91.18504,389411,Bangladesh,BD,50,34,Southern Asia,AS,Asia,,,1,1,
1205733,Chittagong,Chittagong,22.3384,91.83168,3920222,Bangladesh,BD,50,34,Southern Asia,AS,Asia,,,1,1,
1337233,Bogra,Bogra,24.85098,89.37108,210000,Bangladesh,BD,50,34,Southern Asia,AS,Asia,,,1,1,
1336137,Barisāl,Barisāl,22.70497,90.37013,202242,Bangladesh,BD,50,34,Southern Asia,AS,Asia,,,1,1,
3374036,Bridgetown,Bridgetown,13.1,-59.61667,98511,Barbados,BB,52,29,Caribbean,SA,South America,1,,1,,1
625144,Minsk,Minsk,53.9,27.56667,1742124,Belarus,BY,112,151,Eastern Europe,EU,Europe,1,,1,1,
627907,Gomel,Gomel,52.4345,30.9754,480951,Belarus,BY,112,151,Eastern Europe,EU,Europe,,,1,1,
2800866,Brussels,Brussels,50.85045,4.34878,1019022,Belgium,BE,56,155,Western Europe,EU,Europe,1,1,,1,
2803138,Antwerp,Antwerpen,51.21989,4.40346,459805,Belgium,BE,56,155,Western Europe,EU,Europe,,1,,1,
3581194,San Ignacio,San Ignacio,17.1576,-89.07964,16812,Belize,BZ,84,13,Central America,SA,South America,,,1,,1
3582672,Belmopan,Belmopan,17.25,-88.76667,13381,Belize,BZ,84,13,Central America,SA,South America,1,,1,,1
3582677,Belize City,Belize City,17.49952,-88.19756,61461,Belize,BZ,84,13,Central America,SA,South America,,,1,,1
2392087,Porto Novo,Porto-Novo,6.49646,2.60359,234168,Benin,BJ,204,11,Western Africa,AF,Africa,1,,1,1,
2392204,Parakou,Parakou,9.33716,2.63031,163753,Benin,BJ,204,11,Western Africa,AF,Africa,,,1,1,
2394819,Cotonou,Cotonou,6.36536,2.41833,690584,Benin,BJ,204,11,Western Africa,AF,Africa,,,1,1,
3573197,Hamilton,Hamilton,32.29528,-64.78107,902,Bermuda,BM,60,21,North America,NA,North America,1,1,,,1
1252416,Thimphu,Thimphu,27.46609,89.64191,98676,Bhutan,BT,64,34,Southern Asia,AS,Asia,1,,1,1,
1252484,Phuntsholing,Phuntsholing,26.85164,89.38837,17043,Bhutan,BT,64,34,Southern Asia,AS,Asia,,,1,1,
3904906,Santa Cruz de la Sierra,Santa Cruz de la Sierra,-17.78629,-63.18117,1364389,Bolivia,BO,68,5,South America,SA,South America,,,1,,1
3911925,La Paz,La Paz,-16.5,-68.15,812799,Bolivia,BO,68,5,South America,SA,South America,,,1,,1
3911925,La Paz,La Paz,-16.5,-68.15,812799,Bolivia,BO,68,5,South America,SA,South America,,,1,,1
3924132,Alto Porvenir,Alto Porvenir,-11.35,-69.21667,0,Bolivia,BO,68,5,South America,SA,South America,1,,1,,1
3191281,Sarajevo,Sarajevo,43.84864,18.35644,696731,Bosnia and Herzegovina,BA,70,39,Southern Europe,EU,Europe,1,1,,1,
3204541,Banja Luka,Banja Luka,44.77583,17.18556,221106,Bosnia and Herzegovina,BA,70,39,Southern Europe,EU,Europe,,1,,1,
933773,Gaborone,Gaborone,-24.65451,25.90859,208411,Botswana,BW,72,18,Southern Africa,AF,Africa,1,,1,1,
933778,Francistown,Francistown,-21.16995,27.50788,89979,Botswana,BW,72,18,Southern Africa,AF,Africa,,,1,1,
3386496,Teresina,Teresina,-5.08917,-42.80194,744512,Brazil,BR,76,5,South America,SA,South America,,,1,,1
3448439,São Paulo,São Paulo,-23.5475,-46.63611,10021295,Brazil,BR,76,5,South America,SA,South America,,,1,,1
3388368,São Luís,São Luís,-2.52972,-44.30278,917237,Brazil,BR,76,5,South America,SA,South America,,,1,,1
3449072,São Gonçalo ,São Gonçalo,-22.82694,-43.05389,1016128,Brazil,BR,76,5,South America,SA,South America,,,1,,1
3449344,São Bernardo do Campo,São Bernardo do Campo,-23.69389,-46.565,743372,Brazil,BR,76,5,South America,SA,South America,,,1,,1
3450554,Salvador,Salvador,-12.97111,-38.51083,2711840,Brazil,BR,76,5,South America,SA,South America,,,1,,1
3451190,Rio de Janeiro,Rio de Janeiro,-22.90278,-43.2075,6023699,Brazil,BR,76,5,South America,SA,South America,,,1,,1
3390760,Recife,Recife,-8.05389,-34.88111,1478098,Brazil,BR,76,5,South America,SA,South America,,,1,,1
3452925,Porto Alegre,Porto Alegre,-30.03306,-51.23,1372741,Brazil,BR,76,5,South America,SA,South America,,,1,,1
3455775,Osasco,Osasco,-23.5325,-46.79167,677856,Brazil,BR,76,5,South America,SA,South America,,,1,,1
3456160,Nova Iguaçu,Nova Iguaçu,-22.75917,-43.45111,1002118,Brazil,BR,76,5,South America,SA,South America,,,1,,1
3394023,Natal,Natal,-5.795,-35.20944,763043,Brazil,BR,76,5,South America,SA,South America,,,1,,1
3663517,Manaus,Manaus,-3.10194,-60.025,1598210,Brazil,BR,76,5,South America,SA,South America,,,1,,1
3395981,Maceió,Maceió,-9.66583,-35.73528,954991,Brazil,BR,76,5,South America,SA,South America,,,1,,1
3461786,Guarulhos,Guarulhos,-23.46278,-46.53333,1169577,Brazil,BR,76,5,South America,SA,South America,,,1,,1
3462377,Goiânia,Goiânia,-16.67861,-49.25389,1171195,Brazil,BR,76,5,South America,SA,South America,,,1,,1
3399415,Fortaleza,Fortaleza,-3.71722,-38.54306,2400000,Brazil,BR,76,5,South America,SA,South America,,,1,,1
3464374,Duque de Caxias,Duque de Caxias,-22.78556,-43.31167,818329,Brazil,BR,76,5,South America,SA,South America,,,1,,1
3464975,Curitiba,Curitiba,-25.42778,-49.27306,1718421,Brazil,BR,76,5,South America,SA,South America,,,1,,1
3467747,Campo Grande,Campo Grande,-20.44278,-54.64639,729151,Brazil,BR,76,5,South America,SA,South America,,,1,,1
3467865,Campinas,Campinas,-22.90556,-47.06083,1031554,Brazil,BR,76,5,South America,SA,South America,,,1,,1
3469058,Brasília,Brasília,-15.77972,-47.92972,2207718,Brazil,BR,76,5,South America,SA,South America,1,,1,,1
3470127,Belo Horizonte,Belo Horizonte,-19.92083,-43.93778,2373224,Brazil,BR,76,5,South America,SA,South America,,,1,,1
3405870,Belém,Belém,-1.45583,-48.50444,1407737,Brazil,BR,76,5,South America,SA,South America,,,1,,1
3577430,Road Town,Road Town,18.41667,-64.61667,8449,British Virgin Islands,VG,92,29,Caribbean,SA,South America,1,,1,,1
1820491,Kuala Belait,Kuala Belait,4.58361,114.2312,31178,Brunei,BN,96,35,South-Eastern Asia,AS,Asia,,,1,1,
1820906,Bandar Seri Begawan,Bandar Seri Begawan,4.94029,114.94806,64409,Brunei,BN,96,35,South-Eastern Asia,AS,Asia,1,,1,1,
727011,Sofia,Sofia,42.69751,23.32415,1152556,Bulgaria,BG,100,151,Eastern Europe,EU,Europe,1,1,,1,
728193,Plovdiv,Plovdiv,42.15,24.75,340494,Bulgaria,BG,100,151,Eastern Europe,EU,Europe,,1,,1,
2357048,Ouagadougou,Ouagadougou,12.36566,-1.53388,1086505,Burkina Faso,BF,854,11,Western Africa,AF,Africa,1,,1,1,1
2362344,Bobo-Dioulasso,Bobo-Dioulasso,11.17715,-4.2979,360106,Burkina Faso,BF,854,11,Western Africa,AF,Africa,,,1,1,1
431748,Muyinga,Muyinga,-2.8451,30.3414,71076,Burundi,BI,108,14,Eastern Africa,AF,Africa,,,1,1,
425378,Bujumbura,Bujumbura,-3.3822,29.3644,331700,Burundi,BI,108,14,Eastern Africa,AF,Africa,1,,1,1,
1821306,Phnom Penh,Phnom Penh,11.56245,104.91601,1573544,Cambodia,KH,116,35,South-Eastern Asia,AS,Asia,1,,1,1,
1831797,Battambang,Battambang,13.10271,103.19822,150444,Cambodia,KH,116,35,South-Eastern Asia,AS,Asia,,,1,1,
2220957,Yaoundé,Yaoundé,3.86667,11.51667,1299369,Cameroon,CM,120,17,Middle Africa,AF,Africa,1,,1,1,
2232593,Douala,Douala,4.04827,9.70428,1338082,Cameroon,CM,120,17,Middle Africa,AF,Africa,,,1,1,
6183235,Winnipeg,Winnipeg,49.8844,-97.14704,632063,Canada,CA,124,21,North America,NA,North America,,1,,,1
6173331,Vancouver,Vancouver,49.24966,-123.11934,1837969,Canada,CA,124,21,North America,NA,North America,,1,,,1
6167865,Toronto,Toronto,43.70011,-79.4163,4612191,Canada,CA,124,21,North America,NA,North America,,1,,,1
6325494,Québec,Québec,46.812,-71.215,528595,Canada,CA,124,21,North America,NA,North America,,1,,,1
6094817,Ottawa,Ottawa,45.41117,-75.69812,812129,Canada,CA,124,21,North America,NA,North America,1,1,,,1
6077243,Montreal,Montréal,45.50884,-73.58781,3268513,Canada,CA,124,21,North America,NA,North America,,1,,,1
5969782,Hamilton,Hamilton,43.25011,-79.84963,519949,Canada,CA,124,21,North America,NA,North America,,1,,,1
5946768,Edmonton,Edmonton,53.55014,-113.46871,712391,Canada,CA,124,21,North America,NA,North America,,1,,,1
5913490,Calgary,Calgary,51.05011,-114.08529,1019942,Canada,CA,124,21,North America,NA,North America,,1,,,1
3374333,Praia,Praia,14.93152,-23.51254,113364,Cape Verde,CV,132,11,Western Africa,AF,Africa,1,,1,,1
3374462,Mindelo,Mindelo,16.89014,-24.98042,70611,Cape Verde,CV,132,11,Western Africa,AF,Africa,,,1,,1
3580661,George Town,George Town,19.2866,-81.37436,29370,Cayman Islands,KY,136,29,Caribbean,SA,South America,1,,1,,1
2388873,Bimbo,Bimbo,4.25671,18.41583,129655,Central African Republic,CF,140,17,Middle Africa,AF,Africa,,,1,1,
2389853,Bangui,Bangui,4.36122,18.55496,542393,Central African Republic,CF,140,17,Middle Africa,AF,Africa,1,,1,1,
2427123,N'Djamena,N'Djamena,12.10672,15.0444,721081,Chad,TD,148,17,Middle Africa,AF,Africa,1,,1,1,
2427455,Moundou,Moundou,8.56667,16.08333,135167,Chad,TD,148,17,Middle Africa,AF,Africa,,,1,1,
3868626,Valparaíso,Valparaíso,-33.03932,-71.62725,282448,Chile,CL,152,5,South America,SA,South America,,,1,,1
3871336,Santiago,Santiago,-33.45694,-70.64827,4837295,Chile,CL,152,5,South America,SA,South America,1,,1,,1
3875024,Puente Alto,Puente Alto,-33.61169,-70.57577,510417,Chile,CL,152,5,South America,SA,South America,,,1,,1
3893894,Concepción,Concepción,-36.82699,-73.04977,215413,Chile,CL,152,5,South America,SA,South America,,,1,,1
3899539,Antofagasta,Antofagasta,-23.65236,-70.3954,309832,Chile,CL,152,5,South America,SA,South America,,,1,,1
1783621,Zunyi,Zunyi,27.68667,106.90722,466292,China,CN,156,30,Eastern Asia,AS,Asia,,,1,1,
1783633,Zoucheng,Zoucheng,35.40056,116.96556,190537,China,CN,156,30,Eastern Asia,AS,Asia,,,1,1,
1783745,Zigong,Zigong,29.34162,104.77689,689961,China,CN,156,30,Eastern Asia,AS,Asia,,,1,1,
1785286,Zibo,Zibo,36.79056,118.06333,669770,China,CN,156,30,Eastern Asia,AS,Asia,,,1,1,
1783763,Jianning,Zhuzhou,27.83333,113.15,709358,China,CN,156,30,Eastern Asia,AS,Asia,,,1,1,
1783940,Zhuji,Zhuji,29.71876,120.24233,110721,China,CN,156,30,Eastern Asia,AS,Asia,,,1,1,
1790437,Zhuhai,Zhuhai,22.27694,113.56778,501199,China,CN,156,30,Eastern Asia,AS,Asia,,,1,1,
1783988,Zhucheng,Zhucheng,35.99472,119.3975,109968,China,CN,156,30,Eastern Asia,AS,Asia,,,1,1,
1886762,Zhoushan,Zhoushan,30.01075,122.20465,84380,China,CN,156,30,Eastern Asia,AS,Asia,,,1,1,
1784642,Zhenjiang,Zhenjiang,32.21086,119.45508,632552,China,CN,156,30,Eastern Asia,AS,Asia,,,1,1,
1784658,Zhengzhou,Zhengzhou,34.75778,113.64861,2014125,China,CN,156,30,Eastern Asia,AS,Asia,,,1,1,
1784853,Zhaoqing,Zhaoqing,23.05116,112.45972,361969,China,CN,156,30,Eastern Asia,AS,Asia,,,1,1,
1784990,Zhanjiang,Zhanjiang,21.28145,110.34271,637790,China,CN,156,30,Eastern Asia,AS,Asia,,,1,1,
1785018,Zhangzhou,Zhangzhou,24.51333,117.65556,589831,China,CN,156,30,Eastern Asia,AS,Asia,,,1,1,
1785018,Zhangzhou,Zhangzhou,24.51333,117.65556,589831,China,CN,156,30,Eastern Asia,AS,Asia,,,1,1,
7528391,Zhangqiu,Zhangqiu,32.19571,119.97217,0,China,CN,156,30,Eastern Asia,AS,Asia,,,1,1,
1787331,Zhangjiagang,Zhangjiagang,31.865,120.53889,66039,China,CN,156,30,Eastern Asia,AS,Asia,,,1,1,
1785453,Zaozhuang,Zaozhuang,34.86472,117.55417,183665,China,CN,156,30,Eastern Asia,AS,Asia,,,1,1,
1785462,Zaoyang,Zaoyang,32.12722,112.75417,184509,China,CN,156,30,Eastern Asia,AS,Asia,,,1,1,
1785566,Yuzhou,Yuzhou,34.16278,113.46389,87961,China,CN,156,30,Eastern Asia,AS,Asia,,,1,1,
1927639,Yueyang,Yueyang,29.37455,113.09481,5000000,China,CN,156,30,Eastern Asia,AS,Asia,,,1,1,
1885690,Yixing,Yixing,32.01548,121.44028,0,China,CN,156,30,Eastern Asia,AS,Asia,,,1,1,
1814870,Yiwu,Yiwu,29.31506,120.07676,89629,China,CN,156,30,Eastern Asia,AS,Asia,,,1,1,
2033370,Yingkou,Yingkou,40.66482,122.22833,591159,China,CN,156,30,Eastern Asia,AS,Asia,,,1,1,
1786657,Yinchuan,Yinchuan,38.46806,106.27306,475101,China,CN,156,30,Eastern Asia,AS,Asia,,,1,1,
1786764,Yichang,Yichang,30.71444,111.28472,476725,China,CN,156,30,Eastern Asia,AS,Asia,,,1,1,
1786770,Yibin,Yibin,28.76667,104.62383,242111,China,CN,156,30,Eastern Asia,AS,Asia,,,1,1,
1787093,Yantai,Yantai,37.47649,121.44081,719332,China,CN,156,30,Eastern Asia,AS,Asia,,,1,1,
1787227,Yangzhou,Yangzhou,32.39722,119.43583,539715,China,CN,156,30,Eastern Asia,AS,Asia,,,1,1,
1806408,Yangjiang,Yangjiang,21.85564,111.96272,399735,China,CN,156,30,Eastern Asia,AS,Asia,,,1,1,
1787824,Xuzhou,Tongshan,34.18045,117.15707,1199193,China,CN,156,30,Eastern Asia,AS,Asia,,,1,1,
1788046,Xuchang,Xuchang,34.01667,113.81667,449258,China,CN,156,30,Eastern Asia,AS,Asia,,,1,1,
1812057,Xinyi,Xinyi,22.37303,110.94746,98259,China,CN,156,30,Eastern Asia,AS,Asia,,,1,1,
1788534,Xinyang,Xinyang,32.12278,114.06556,1590668,China,CN,156,30,Eastern Asia,AS,Asia,,,1,1,
1788572,Xinxiang,Xinxiang,35.30889,113.86722,743601,China,CN,156,30,Eastern Asia,AS,Asia,,,1,1,
1788852,Xining,Xining,36.62554,101.75739,767531,China,CN,156,30,Eastern Asia,AS,Asia,,,1,1,
1788927,Xingtai,Xingtai,37.06306,114.49417,611739,China,CN,156,30,Eastern Asia,AS,Asia,,,1,1,
1790353,Xianyang,Xianyang,34.33778,108.70261,1034081,China,CN,156,30,Eastern Asia,AS,Asia,,,1,1,
1790587,Xiangfan,Xiangyang,32.0422,112.14479,462956,China,CN,156,30,Eastern Asia,AS,Asia,,,1,1,
1790492,Xiangtan,Xiangtan,27.85,112.9,674189,China,CN,156,30,Eastern Asia,AS,Asia,,,1,1,
1790601,Xiangcheng,Xiangcheng,33.84703,113.4778,65833,China,CN,156,30,Eastern Asia,AS,Asia,,,1,1,
1790645,Xiamen,Xiamen,24.47979,118.08187,578337,China,CN,156,30,Eastern Asia,AS,Asia,,,1,1,
1790630,Xi'an,Xi’an,34.25833,108.92861,3225812,China,CN,156,30,Eastern Asia,AS,Asia,,,1,1,
1790923,Wuxi,Wuxi,31.56887,120.28857,1108647,China,CN,156,30,Eastern Asia,AS,Asia,,,1,1,
1803936,Wuwei,Wuwei,37.92672,102.63202,493092,China,CN,156,30,Eastern Asia,AS,Asia,,,1,1,
1791236,Wuhu,Wuhu,31.33728,118.37351,507524,China,CN,156,30,Eastern Asia,AS,Asia,,,1,1,
1791236,Wuhu,Wuhu,31.33728,118.37351,507524,China,CN,156,30,Eastern Asia,AS,Asia,,,1,1,
1791247,Wuhan,Wuhan,30.58333,114.26667,4184206,China,CN,156,30,Eastern Asia,AS,Asia,,,1,1,
1800829,Wuchuan,Wuchuan,21.45713,110.76591,104168,China,CN,156,30,Eastern Asia,AS,Asia,,,1,1,
1791388,Wenzhou,Wenzhou,27.99942,120.66682,865672,China,CN,156,30,Eastern Asia,AS,Asia,,,1,1,
1791464,Wenling,Wenling,28.37161,121.36974,67433,China,CN,156,30,Eastern Asia,AS,Asia,,,1,1,
1791673,Weihai,Weihai,37.50914,122.11356,152595,China,CN,156,30,Eastern Asia,AS,Asia,,,1,1,
1791681,Weifang,Weifang,36.71,119.10194,394732,China,CN,156,30,Eastern Asia,AS,Asia,,,1,1,
1529102,Ürümqi,Ürümqi,43.80096,87.60046,1508225,China,CN,156,30,Eastern Asia,AS,Asia,,,1,1,
2034439,Tieling,Tieling,42.29306,123.84139,333907,China,CN,156,30,Eastern Asia,AS,Asia,,,1,1,
1792892,Tianshui,Tianshui,34.57952,105.74238,3500000,China,CN,156,30,Eastern Asia,AS,Asia,,,1,1,
1792947,Tianjin,Tianjin,39.14222,117.17667,3766207,China,CN,156,30,Eastern Asia,AS,Asia,,,1,1,
1793036,Tengzhou,Tengzhou,35.07706,117.15176,105456,China,CN,156,30,Eastern Asia,AS,Asia,,,1,1,
1793346,Tangshan,Tangshan,39.63333,118.18333,1596949,China,CN,156,30,Eastern Asia,AS,Asia,,,1,1,
1793505,Taizhou,Taizhou,32.49069,119.90812,612356,China,CN,156,30,Eastern Asia,AS,Asia,,,1,1,
1793511,Taiyuan,Taiyuan,37.86944,112.56028,2722475,China,CN,156,30,Eastern Asia,AS,Asia,,,1,1,
1793533,Taixing,Taixing,32.16667,120.01361,79655,China,CN,156,30,Eastern Asia,AS,Asia,,,1,1,
1793724,Tai’an,Tai’an,36.18528,117.12,5499000,China,CN,156,30,Eastern Asia,AS,Asia,,,1,1,
1886760,Suzhou,Suzhou,31.30408,120.59538,1343091,China,CN,156,30,Eastern Asia,AS,Asia,,,1,1,
1886760,Suzhou,Suzhou,31.30408,120.59538,1343091,China,CN,156,30,Eastern Asia,AS,Asia,,,1,1,
1793771,Suqian,Suqian,33.94917,118.29583,0,China,CN,156,30,Eastern Asia,AS,Asia,,,1,1,
2034655,Suihua,Suihua,46.63954,126.99508,252245,China,CN,156,30,Eastern Asia,AS,Asia,,,1,1,
1794794,Shouguang,Shouguang,36.88,118.7375,79212,China,CN,156,30,Eastern Asia,AS,Asia,,,1,1,
1795270,Shijiazhuang,Shijiazhuang,38.04139,114.47861,1992474,China,CN,156,30,Eastern Asia,AS,Asia,,,1,1,
1795565,Shenzhen,Shenzhen,22.54554,114.0683,3000000,China,CN,156,30,Eastern Asia,AS,Asia,,,1,1,
2034937,Shenyang,Shenyang,41.79222,123.43278,3512192,China,CN,156,30,Eastern Asia,AS,Asia,,,1,1,
1816920,Shaoyang,Shaoyang,27.24417,111.47389,0,China,CN,156,30,Eastern Asia,AS,Asia,,,1,1,
1795855,Shaoxing,Shaoxing,30.01102,120.57153,421283,China,CN,156,30,Eastern Asia,AS,Asia,,,1,1,
1795940,Shantou,Shantou,23.36814,116.71479,1333973,China,CN,156,30,Eastern Asia,AS,Asia,,,1,1,
1796236,Shanghai,Shanghai,31.22222,121.45806,14608512,China,CN,156,30,Eastern Asia,AS,Asia,,,1,1,
1797069,Rucheng,Rucheng,32.38833,120.55528,0,China,CN,156,30,Eastern Asia,AS,Asia,,,1,1,
1797132,Rizhao,Rizhao,35.4275,119.45528,246387,China,CN,156,30,Eastern Asia,AS,Asia,,,1,1,
1797318,Qujing,Qujing,25.48333,103.78333,146015,China,CN,156,30,Eastern Asia,AS,Asia,,,1,1,
1797353,Chinchu,Quanzhou,24.91389,118.58583,184143,China,CN,156,30,Eastern Asia,AS,Asia,,,1,1,
2035265,Qiqihar,Qiqihar,47.34088,123.96045,882364,China,CN,156,30,Eastern Asia,AS,Asia,,,1,1,
1797595,Qinhuangdao,Qinhuangdao,39.93167,119.58833,759718,China,CN,156,30,Eastern Asia,AS,Asia,,,1,1,
1797929,Qingdao,Qingdao,36.06605,120.36939,1642245,China,CN,156,30,Eastern Asia,AS,Asia,,,1,1,
1913681,Qidong,Qidong,22.62889,111.23,0,China,CN,156,30,Eastern Asia,AS,Asia,,,1,1,
1798425,Puyang,Puyang,29.45679,119.88872,3590000,China,CN,156,30,Eastern Asia,AS,Asia,,,1,1,
1798449,Putian,Putian,25.43944,119.01028,376558,China,CN,156,30,Eastern Asia,AS,Asia,,,1,1,
1785716,Pizhou,Pizhou,34.31139,117.95028,82641,China,CN,156,30,Eastern Asia,AS,Asia,,,1,1,
1798827,Pingdingshan,Pingdingshan,33.73847,113.30119,889675,China,CN,156,30,Eastern Asia,AS,Asia,,,1,1,
6929460,Panzhihua,Panzhihua,26.58509,101.71276,0,China,CN,156,30,Eastern Asia,AS,Asia,,,1,1,
2042075,Pangjin-dong,Pangjin-dong,42.15611,130.19278,0,North Korea,KP,156,30,Eastern Asia,AS,Asia,,,1,1,
1799397,Ningbo,Ningbo,29.87819,121.54945,719867,China,CN,156,30,Eastern Asia,AS,Asia,,,1,1,
1799491,Neijiang,Neijiang,29.58354,105.06216,546854,China,CN,156,30,Eastern Asia,AS,Asia,,,1,1,
1799629,Nanyang,Nanyang,32.99472,112.53278,251532,China,CN,156,30,Eastern Asia,AS,Asia,,,1,1,
1799722,Nantong,Nantong,32.03028,120.87472,666251,China,CN,156,30,Eastern Asia,AS,Asia,,,1,1,
1799869,Nanning,Nanning,22.81667,108.31667,803788,China,CN,156,30,Eastern Asia,AS,Asia,,,1,1,
1799962,Nanjing,Nanjing,32.06167,118.77778,3087010,China,CN,156,30,Eastern Asia,AS,Asia,,,1,1,
1800146,Nanchong,Nanchong,30.79508,106.08474,7150000,China,CN,156,30,Eastern Asia,AS,Asia,,,1,1,
1800163,Nanchang,Nanchang,28.68333,115.88333,1871351,China,CN,156,30,Eastern Asia,AS,Asia,,,1,1,
2035715,Mudanjiang,Mudanjiang,44.58333,129.6,665915,China,CN,156,30,Eastern Asia,AS,Asia,,,1,1,
1800627,Mianyang,Mianyang,31.45934,104.75424,264136,China,CN,156,30,Eastern Asia,AS,Asia,,,1,1,
1801180,Maoming,Maoming,21.65,110.9,0,China,CN,156,30,Eastern Asia,AS,Asia,,,1,1,
7348241,Ma’anshan,Ma’anshan,34.01762,104.41518,0,China,CN,156,30,Eastern Asia,AS,Asia,,,1,1,
1801792,Luoyang,Luoyang,34.68361,112.45361,1390581,China,CN,156,30,Eastern Asia,AS,Asia,,,1,1,
1808722,Hefei,Hefei,31.86389,117.28083,1388904,China,CN,156,30,Eastern Asia,AS,Asia,,,1,1,
1553404,Liuzhou,Liuzhou,29.84061,118.18135,0,China,CN,156,30,Eastern Asia,AS,Asia,,,1,1,
1803318,Linyi,Linyi,35.06306,118.34278,270669,China,CN,156,30,Eastern Asia,AS,Asia,,,1,1,
1803422,Linhai,Linhai,28.84815,121.12807,152937,China,CN,156,30,Eastern Asia,AS,Asia,,,1,1,
1803567,Linfen,Linfen,36.08889,111.51889,232566,China,CN,156,30,Eastern Asia,AS,Asia,,,1,1,
2036113,Liaoyang,Liaoyang,41.27194,123.17306,687890,China,CN,156,30,Eastern Asia,AS,Asia,,,1,1,
1803834,Liaocheng,Liaocheng,36.44389,115.96472,226930,China,CN,156,30,Eastern Asia,AS,Asia,,,1,1,
1788694,Lianyungang,Xinpu,34.59972,119.15944,392444,China,CN,156,30,Eastern Asia,AS,Asia,,,1,1,
1804430,Lanzhou,Lanzhou,36.05701,103.83987,3200000,China,CN,156,30,Eastern Asia,AS,Asia,,,1,1,
1804540,Langfang,Langfang,39.50972,116.69472,720119,China,CN,156,30,Eastern Asia,AS,Asia,,,1,1,
1804591,Laiwu,Laiwu,36.19278,117.65694,124108,China,CN,156,30,Eastern Asia,AS,Asia,,,1,1,
1804651,Kunming,Kunming,25.03889,102.71833,1023674,China,CN,156,30,Eastern Asia,AS,Asia,,,1,1,
1280849,Kashgar,Kashi,39.45472,75.97972,274717,China,CN,156,30,Eastern Asia,AS,Asia,,,1,1,
1804879,Kaifeng,Kaifeng,34.7986,114.30742,4800000,China,CN,156,30,Eastern Asia,AS,Asia,,,1,1,
2036427,Jinzhou,Jinzhou,41.10778,121.14167,604269,China,CN,156,30,Eastern Asia,AS,Asia,,,1,1,
1805518,Jining,Jining,35.405,116.58139,450327,China,CN,156,30,Eastern Asia,AS,Asia,,,1,1,
1805528,Jinhua,Jinhua,29.10678,119.64421,142206,China,CN,156,30,Eastern Asia,AS,Asia,,,1,1,
1805540,Jingzhou,Jingzhou,30.35028,112.19028,177878,China,CN,156,30,Eastern Asia,AS,Asia,,,1,1,
1805753,Jinan,Jinan,36.66833,116.99722,2069266,China,CN,156,30,Eastern Asia,AS,Asia,,,1,1,
2036502,Jilin City,Jilin,43.85083,126.56028,1881977,China,CN,156,30,Eastern Asia,AS,Asia,,,1,1,
1805953,Jiaxing,Jiaxing,30.7522,120.75,466101,China,CN,156,30,Eastern Asia,AS,Asia,,,1,1,
1805987,Jiaozuo,Jiaozuo,35.23972,113.23306,517540,China,CN,156,30,Eastern Asia,AS,Asia,,,1,1,
1815251,Jiangyin,Chengjiang,31.91102,120.26302,107918,China,CN,156,30,Eastern Asia,AS,Asia,,,1,1,
1806299,Jiangmen,Jiangmen,22.58333,113.08333,532419,China,CN,156,30,Eastern Asia,AS,Asia,,,1,1,
2036581,Jiamusi,Jiamusi,46.79927,130.31633,549549,China,CN,156,30,Eastern Asia,AS,Asia,,,1,1,
2036662,Huludao,Huludao,40.75242,120.83552,0,China,CN,156,30,Eastern Asia,AS,Asia,,,1,1,
1806776,Huizhou,Huizhou,23.08333,114.4,289201,China,CN,156,30,Eastern Asia,AS,Asia,,,1,1,
1806960,Huazhou,Huazhou,21.63333,110.58333,91701,China,CN,156,30,Eastern Asia,AS,Asia,,,1,1,
1807234,Huangshi,Huangshi,30.24706,115.04814,688090,China,CN,156,30,Eastern Asia,AS,Asia,,,1,1,
1807681,Huainan,Huainan,32.62639,116.99694,1027655,China,CN,156,30,Eastern Asia,AS,Asia,,,1,1,
1807700,Huaibei,Huaibei,33.97444,116.79167,903039,China,CN,156,30,Eastern Asia,AS,Asia,,,1,1,
1797873,Huai'an,Huai'an,33.58861,119.01917,555230,China,CN,156,30,Eastern Asia,AS,Asia,,,1,1,
1819729,Hong Kong,Hong Kong,22.28552,114.15769,7012738,Hong Kong,HK,156,30,Eastern Asia,AS,Asia,,,1,1,
2036892,Hohhot,Hohhot,40.81056,111.65222,774477,China,CN,156,30,Eastern Asia,AS,Asia,,,1,1,
1909764,Hezhou,Hezhou,26.50056,112.29111,0,China,CN,156,30,Eastern Asia,AS,Asia,,,1,1,
1808198,Heze,Heze,35.24306,115.44111,254602,China,CN,156,30,Eastern Asia,AS,Asia,,,1,1,
1808370,Hengyang,Hengyang,26.88946,112.61888,759602,China,CN,156,30,Eastern Asia,AS,Asia,,,1,1,
1808370,Hengyang,Hengyang,26.88946,112.61888,759602,China,CN,156,30,Eastern Asia,AS,Asia,,,1,1,
1808722,Hefei,Hefei,31.86389,117.28083,1388904,China,CN,156,30,Eastern Asia,AS,Asia,,,1,1,
2037013,Harbin,Harbin,45.75,126.65,3229883,China,CN,156,30,Eastern Asia,AS,Asia,,,1,1,
1808926,Hangzhou,Hangzhou,30.29365,120.16142,1878129,China,CN,156,30,Eastern Asia,AS,Asia,,,1,1,
1808963,Handan,Handan,36.60056,114.46778,1358318,China,CN,156,30,Eastern Asia,AS,Asia,,,1,1,
1809062,Haimen,Haimen,23.19346,116.61219,125427,China,CN,156,30,Eastern Asia,AS,Asia,,,1,1,
1809078,Haikou,Haikou,20.04583,110.34167,615835,China,CN,156,30,Eastern Asia,AS,Asia,,,1,1,
2037086,Haicheng,Haicheng,40.85158,122.74754,191651,China,CN,156,30,Eastern Asia,AS,Asia,,,1,1,
1809461,Guiyang,Guiyang,26.58333,106.71667,1171633,China,CN,156,30,Eastern Asia,AS,Asia,,,1,1,
1809498,Guilin,Guilin,25.28194,110.28639,649352,China,CN,156,30,Eastern Asia,AS,Asia,,,1,1,
1809532,Guigang,Guigang,23.09639,109.60917,76430,China,CN,156,30,Eastern Asia,AS,Asia,,,1,1,
1809858,Guangzhou,Guangzhou,23.11667,113.25,3152825,China,CN,156,30,Eastern Asia,AS,Asia,,,1,1,
1810821,Fuzhou,Fuzhou,26.06139,119.30611,1179720,China,CN,156,30,Eastern Asia,AS,Asia,,,1,1,
1810845,Fuyang,Fuyang,32.9,115.81667,170023,China,CN,156,30,Eastern Asia,AS,Asia,,,1,1,
2037346,Fuxin,Fuxin,42.01556,121.65889,689050,China,CN,156,30,Eastern Asia,AS,Asia,,,1,1,
2037355,Fushun,Fushun,41.85583,123.92333,1400646,China,CN,156,30,Eastern Asia,AS,Asia,,,1,1,
1797120,Fuqing,Fuqing,25.725,119.37944,67397,China,CN,156,30,Eastern Asia,AS,Asia,,,1,1,
1789176,Feicheng,Feicheng,36.24861,116.76583,77606,China,CN,156,30,Eastern Asia,AS,Asia,,,1,1,
1811619,Ezhou,Ezhou,30.4,114.83333,193652,China,CN,156,30,Eastern Asia,AS,Asia,,,1,1,
1812101,Dongying,Dongying,37.45639,118.48556,306450,China,CN,156,30,Eastern Asia,AS,Asia,,,1,1,
1812545,Dongguan,Dongguan,23.04889,113.74472,390219,China,CN,156,30,Eastern Asia,AS,Asia,,,1,1,
1812728,Dingzhou,Dingzhou,38.51306,114.99556,152934,China,CN,156,30,Eastern Asia,AS,Asia,,,1,1,
1812955,Dezhou,Dezhou,37.44861,116.2925,379555,China,CN,156,30,Eastern Asia,AS,Asia,,,1,1,
1812990,Dengzhou,Dengzhou,32.68222,112.08194,59338,China,CN,156,30,Eastern Asia,AS,Asia,,,1,1,
2037799,Datong,Datong,40.09361,113.29139,1052678,China,CN,156,30,Eastern Asia,AS,Asia,,,1,1,
2037799,Datong,Datong,40.09361,113.29139,1052678,China,CN,156,30,Eastern Asia,AS,Asia,,,1,1,
2037860,Daqing,Daqing,46.58333,125,203488,China,CN,156,30,Eastern Asia,AS,Asia,,,1,1,
1813802,Danyang,Danyang,31.99874,119.57836,0,China,CN,156,30,Eastern Asia,AS,Asia,,,1,1,
2037886,Dandong,Dandong,40.12917,124.39472,631973,China,CN,156,30,Eastern Asia,AS,Asia,,,1,1,
1814087,Dalian,Dalian,38.91222,121.60222,2035307,China,CN,156,30,Eastern Asia,AS,Asia,,,1,1,
7332364,Cixi,Cixi,31.11184,120.22466,0,China,CN,156,30,Eastern Asia,AS,Asia,,,1,1,
1814906,Chongqing,Chongqing,29.56278,106.55278,3967028,China,CN,156,30,Eastern Asia,AS,Asia,,,1,1,
2038067,Chifeng,Chifeng,42.26833,118.96361,346654,China,CN,156,30,Eastern Asia,AS,Asia,,,1,1,
1815286,Chengdu,Chengdu,30.66667,104.06667,3950437,China,CN,156,30,Eastern Asia,AS,Asia,1,,1,1,
1815456,Changzhou,Changzhou,31.77358,119.95401,949018,China,CN,156,30,Eastern Asia,AS,Asia,,,1,1,
7283386,Changshu City,Changshu City,31.64615,120.74221,1047700,China,CN,156,30,Eastern Asia,AS,Asia,,,1,1,
1815577,Changsha,Changsha,28.19874,112.97087,2073938,China,CN,156,30,Eastern Asia,AS,Asia,,,1,1,
1791121,Changde,Changde,29.04638,111.6783,517780,China,CN,156,30,Eastern Asia,AS,Asia,,,1,1,
2038180,Changchun,Changchun,43.88,125.32278,2537421,China,CN,156,30,Eastern Asia,AS,Asia,,,1,1,
1816234,Bozhou,Bozhou,33.87722,115.77028,174140,China,CN,156,30,Eastern Asia,AS,Asia,,,1,1,
1816336,Binzhou,Binzhou,37.36667,118.01667,115893,China,CN,156,30,Eastern Asia,AS,Asia,,,1,1,
2038300,Benxi,Benxi,41.28861,123.765,987717,China,CN,156,30,Eastern Asia,AS,Asia,,,1,1,
1816440,Bengbu,Bengbu,32.94083,117.36083,576648,China,CN,156,30,Eastern Asia,AS,Asia,,,1,1,
1816670,Beijing,Beijing,39.9075,116.39723,7480601,China,CN,156,30,Eastern Asia,AS,Asia,,,1,1,
1816807,Bazhou,Bazhou,31.85372,106.7586,0,China,CN,156,30,Eastern Asia,AS,Asia,,,1,1,
2038432,Baotou,Baotou,40.65222,109.82222,1301768,China,CN,156,30,Eastern Asia,AS,Asia,,,1,1,
2038455,Baoji,Baoji,41.82861,121.87472,0,China,CN,156,30,Eastern Asia,AS,Asia,,,1,1,
1816971,Baoding,Baoding,38.85111,115.49028,995652,China,CN,156,30,Eastern Asia,AS,Asia,,,1,1,
1785294,Anyang,Anyang,36.09944,114.32889,781129,China,CN,156,30,Eastern Asia,AS,Asia,,,1,1,
2038632,Anshan,Anshan,41.12361,122.99,1199275,China,CN,156,30,Eastern Asia,AS,Asia,,,1,1,
1817993,Anqing,Anqing,30.51365,117.04723,358661,China,CN,156,30,Eastern Asia,AS,Asia,,,1,1,
2078127,Flying Fish Cove,Flying Fish Cove,-10.42172,105.67912,500,Christmas Island,CX,36,53,Australia and New Zealand,OC,Oceania,,1,,1,
1547382,Bantam Village,Bantam Village,-12.11645,96.89497,500,Cocos [Keeling] Islands,CC,36,53,Australia and New Zealand,OC,Oceania,,1,,1,
3687925,Santiago de Cali,Cali,3.43722,-76.5225,2392877,Colombia,CO,170,5,South America,SA,South America,,,1,,1
3674962,Medellín,Medellín,6.25184,-75.56359,1999979,Colombia,CO,170,5,South America,SA,South America,,,1,,1
3687238,Cartagena,Cartagena,10.39972,-75.51444,952024,Colombia,CO,170,5,South America,SA,South America,,,1,,1
3688689,Bogotá,Bogotá,4.60971,-74.08175,7674366,Colombia,CO,170,5,South America,SA,South America,1,,1,,1
3689147,Barranquilla,Barranquilla,10.96854,-74.78132,1380425,Colombia,CO,170,5,South America,SA,South America,,,1,,1
921753,Moutsamoudou,Moutsamoudou,-12.16672,44.39944,23594,Comoros,KM,174,14,Eastern Africa,AF,Africa,,,1,1,
921772,Moroni,Moroni,-11.70216,43.25506,42872,Comoros,KM,174,14,Eastern Africa,AF,Africa,1,,1,1,
4035715,Avarua,Avarua,-21.20778,-159.775,13373,Cook Islands,CK,184,61,Polynesia,OC,Oceania,1,,1,1,
3621849,San José,San José,9.93333,-84.08333,335007,Costa Rica,CR,188,13,Central America,SA,South America,1,,1,,1
3622247,Limón,Limón,9.99074,-83.03596,63081,Costa Rica,CR,188,13,Central America,SA,South America,,,1,,1
3186886,Zagreb,Zagreb,45.81444,15.97798,698966,Croatia,HR,191,39,Southern Europe,EU,Europe,1,1,,1,
3190261,Split,Split,43.50891,16.43915,176314,Croatia,HR,191,39,Southern Europe,EU,Europe,,1,,1,
3536729,Santiago de Cuba,Santiago de Cuba,20.02472,-75.82194,555865,Cuba,CU,192,29,Caribbean,SA,South America,,,1,,1
3553478,Havana,Havana,23.13302,-82.38304,2163824,Cuba,CU,192,29,Caribbean,SA,South America,1,,1,,1
3513090,Willemstad,Willemstad,12.1084,-68.93354,125000,Curacao,CW,531,29,Caribbean,SA,South America,1,,1,,1
146268,Nicosia,Nicosia,35.16667,33.36667,200452,Cyprus,CY,196,145,Western Asia,AS,Asia,1,1,,1,
146384,Limassol,Limassol,34.675,33.03333,154000,Cyprus,CY,196,145,Western Asia,AS,Asia,,1,,1,
146412,Kyrenia,Kyrenia,35.34167,33.31667,26701,Cyprus,CY,196,145,Western Asia,AS,Asia,,1,,1,
3067696,Prague,Prague,50.08804,14.42076,1165581,Czechia,CZ,203,151,Eastern Europe,EU,Europe,1,1,,1,
3078610,Brno,Brno,49.19522,16.60796,369559,Czechia,CZ,203,151,Eastern Europe,EU,Europe,,1,,1,
922704,Lubumbashi,Lubumbashi,-11.66089,27.47938,1373770,Democratic Republic of the Congo,CD,180,17,Middle Africa,AF,Africa,,,1,1,
2314302,Kinshasa,Kinshasa,-4.32758,15.31357,7785965,Democratic Republic of the Congo,CD,180,17,Middle Africa,AF,Africa,1,,1,1,
2618425,Copenhagen,Copenhagen,55.67594,12.56553,1153615,Denmark,DK,208,154,Northern Europe,EU,Europe,1,1,,1,
2624652,Aarhus,Århus,56.15674,10.21076,237551,Denmark,DK,208,154,Northern Europe,EU,Europe,,1,,1,
223817,Djibouti,Djibouti,11.58901,43.14503,623891,Djibouti,DJ,262,14,Eastern Africa,AF,Africa,1,,1,1,
225284,Ali Sabih,Ali Sabieh,11.15583,42.7125,40074,Djibouti,DJ,262,14,Eastern Africa,AF,Africa,,,1,1,
3575635,Roseau,Roseau,15.30174,-61.38808,16571,Dominica,DM,212,29,Caribbean,SA,South America,1,,1,,1
3492908,Santo Domingo,Santo Domingo,18.50012,-69.98857,2201941,Dominican Republic,DO,214,29,Caribbean,SA,South America,1,,1,,1
3492914,Santiago de los Caballeros,Santiago de los Caballeros,19.4517,-70.69703,1200000,Dominican Republic,DO,214,29,Caribbean,SA,South America,,,1,,1
1645457,Dili,Dili,-8.55861,125.57361,150000,East Timor,TL,626,35,South-Eastern Asia,AS,Asia,1,,1,1,
1943194,Dare,Dare,-8.59278,125.56917,0,East Timor,TL,626,35,South-Eastern Asia,AS,Asia,,,1,1,
3652462,Quito,Quito,-0.22985,-78.52495,1399814,Ecuador,EC,218,5,South America,SA,South America,1,,1,,1
3657509,Guayaquil,Guayaquil,-2.20584,-79.90795,1952029,Ecuador,EC,218,5,South America,SA,South America,,,1,,1
349076,Shubrā al Khaymah,Shubrā al Khaymah,30.12511,31.25053,0,Egypt,EG,818,15,Northern Africa,AF,Africa,,,1,1,
360995,Giza,Al Jīzah,30.00808,31.21093,2443203,Egypt,EG,818,15,Northern Africa,AF,Africa,,,1,1,
360630,Cairo,Cairo,30.06263,31.24967,7734614,Egypt,EG,818,15,Northern Africa,AF,Africa,1,,1,1,
361058,Alexandria,Alexandria,31.21564,29.95527,3811516,Egypt,EG,818,15,Northern Africa,AF,Africa,,,1,1,
3583334,Santa Ana,Santa Ana,13.99417,-89.55972,176661,El Salvador,SV,222,13,Central America,SA,South America,,,1,,1
3583361,San Salvador,San Salvador,13.68935,-89.18718,525990,El Salvador,SV,222,13,Central America,SA,South America,1,,1,,1
2309527,Santa Isabel,Malabo,3.75,8.78333,155963,Equatorial Guinea,GQ,226,17,Middle Africa,AF,Africa,,,1,1,
2310046,Bata,Bata,1.86391,9.76582,173046,Equatorial Guinea,GQ,226,17,Middle Africa,AF,Africa,,,1,1,
343386,Assab,Assab,13.00917,42.73944,21300,Eritrea,ER,232,14,Eastern Africa,AF,Africa,,,1,1,
343300,Asmara,Asmara,15.33805,38.93184,563930,Eritrea,ER,232,14,Eastern Africa,AF,Africa,1,,1,1,
588335,Tartu,Tartu,58.38062,26.72509,101092,Estonia,EE,233,154,Northern Europe,EU,Europe,,1,,1,
588409,Tallinn,Tallinn,59.43696,24.75353,394024,Estonia,EE,233,154,Northern Europe,EU,Europe,1,1,,1,
338832,Dire Dawa,Dire Dawa,9.59306,41.86611,252279,Ethiopia,ET,231,14,Eastern Africa,AF,Africa,,,1,1,
344979,Addis Ababa,Addis Ababa,9.02497,38.74689,2757729,Ethiopia,ET,231,14,Eastern Africa,AF,Africa,1,,1,1,
3426691,Stanley,Stanley,-51.7,-57.85,2213,Falkland Islands,FK,238,5,South America,SA,South America,1,,1,,1
2611396,Tórshavn,Tórshavn,62.00973,-6.77164,13200,Faroe Islands,FO,234,154,Northern Europe,EU,Europe,1,1,,,1
2198148,Suva,Suva,-18.14161,178.44149,77366,Fiji,FJ,242,54,Melanesia,OC,Oceania,1,,1,1,
658225,Helsinki,Helsinki,60.16952,24.93545,558457,Finland,FI,246,154,Northern Europe,EU,Europe,1,1,,1,
660158,Espoo,Espoo,60.2052,24.6522,256760,Finland,FI,246,154,Northern Europe,EU,Europe,,1,,1,
2988507,Paris,Paris,48.85341,2.3488,2138551,France,FR,250,155,Western Europe,EU,Europe,1,1,,1,1
2995469,Marseille,Marseille,43.29695,5.38107,794811,France,FR,250,155,Western Europe,EU,Europe,,1,,1,1
3380387,Saint-Laurent-du-Maroni,Saint-Laurent-du-Maroni,5.5,-54.03333,24287,French Guiana,GF,254,5,South America,SA,South America,,,1,,1
3382160,Cayenne,Cayenne,4.93333,-52.33333,61550,French Guiana,GF,254,5,South America,SA,South America,1,,1,,1
4033936,Papeete,Papeete,-17.53733,-149.5665,26357,French Polynesia,PF,258,61,Polynesia,OC,Oceania,1,,1,,1
4034307,Mahina,Mahina,-17.50648,-149.48899,14369,French Polynesia,PF,258,61,Polynesia,OC,Oceania,,,1,,1
2396518,Port-Gentil,Port-Gentil,-0.71933,8.78151,109163,Gabon,GA,266,17,Middle Africa,AF,Africa,,,1,1,
2399697,Libreville,Libreville,0.39241,9.45356,578156,Gabon,GA,266,17,Middle Africa,AF,Africa,1,,1,1,
2413753,Brikama,Brikama,13.27136,-16.64944,77700,Gambia,GM,270,11,Western Africa,AF,Africa,,,1,,1
2413876,Banjul,Banjul,13.45274,-16.57803,34589,Gambia,GM,270,11,Western Africa,AF,Africa,1,,1,,1
2413920,Bakau,Bakau,13.47806,-16.68194,43098,Gambia,GM,270,11,Western Africa,AF,Africa,,,1,,1
610824,Zugdidi,Zugdidi,42.5088,41.87088,73006,Georgia,GE,268,145,Western Asia,AS,Asia,,,1,1,
611717,Tbilisi,Tbilisi,41.69411,44.83368,1049498,Georgia,GE,268,145,Western Asia,AS,Asia,1,,1,1,
612287,Rustavi,Rust’avi,41.54949,44.99323,50000,Georgia,GE,268,145,Western Asia,AS,Asia,,,1,1,
612366,P’ot’i,P’ot’i,42.14616,41.67197,47149,Georgia,GE,268,145,Western Asia,AS,Asia,,,1,1,
613607,Kutaisi,K'ut'aisi,42.26791,42.69459,178338,Georgia,GE,268,145,Western Asia,AS,Asia,,,1,1,
614455,Gori,Gori,41.98422,44.11578,46676,Georgia,GE,268,145,Western Asia,AS,Asia,,,1,1,
615532,Batumi,Batumi,41.64159,41.63593,121806,Georgia,GE,268,145,Western Asia,AS,Asia,,,1,1,
2825297,Stuttgart,Stuttgart,48.78232,9.17702,589793,Germany,DE,276,155,Western Europe,EU,Europe,,1,,1,
2867714,Munich,Munich,48.13743,11.57549,1260391,Germany,DE,276,155,Western Europe,EU,Europe,,1,,1,
2911298,Hamburg,Hamburg,53.57532,10.01534,1739117,Germany,DE,276,155,Western Europe,EU,Europe,,1,,1,
2925533,Frankfurt am Main,Frankfurt am Main,50.11552,8.68417,650000,Germany,DE,276,155,Western Europe,EU,Europe,,1,,1,
2928810,Essen,Essen,51.45657,7.01228,593085,Germany,DE,276,155,Western Europe,EU,Europe,,1,,1,
2934246,Düsseldorf,Düsseldorf,51.22172,6.77616,573057,Germany,DE,276,155,Western Europe,EU,Europe,,1,,1,
2935517,Dortmund,Dortmund,51.51494,7.466,588462,Germany,DE,276,155,Western Europe,EU,Europe,,1,,1,
2886242,Cologne,Köln,50.93333,6.95,963395,Germany,DE,276,155,Western Europe,EU,Europe,,1,,1,
2944388,Bremen,Bremen,53.07516,8.80777,546501,Germany,DE,276,155,Western Europe,EU,Europe,,1,,1,
2950159,Berlin,Berlin,52.52437,13.41053,3426354,Germany,DE,276,155,Western Europe,EU,Europe,1,1,,1,
2298890,Kumasi,Kumasi,6.68848,-1.62443,1468609,Ghana,GH,288,11,Western Africa,AF,Africa,,,1,,1
2306104,Accra,Accra,5.55602,-0.1969,1963264,Ghana,GH,288,11,Western Africa,AF,Africa,1,,1,,1
2411585,Gibraltar,Gibraltar,36.14474,-5.35257,26544,Gibraltar,GI,292,39,Southern Europe,EU,Europe,1,1,,,1
734077,Thessaloniki,Thessaloníki,40.64028,22.94389,354290,Greece,GR,300,39,Southern Europe,EU,Europe,,1,,1,
255683,Patras,Pátra,38.24444,21.73444,163360,Greece,GR,300,39,Southern Europe,EU,Europe,,1,,1,
264371,Athens,Athens,37.97945,23.71622,729137,Greece,GR,300,39,Southern Europe,EU,Europe,1,1,,1,
3419842,Sisimiut,Sisimiut,66.93946,-53.6735,5227,Greenland,GL,304,21,North America,NA,North America,,1,,,1
3421319,Nuuk,Nuuk,64.18347,-51.72157,14798,Greenland,GL,304,21,North America,NA,North America,1,1,,,1
3579925,St. George's,Saint George's,12.05644,-61.74849,7500,Grenada,GD,308,29,Caribbean,SA,South America,1,,1,,1
4038659,Tamuning-Tumon-Harmon Village,Tamuning-Tumon-Harmon Village,13.48773,144.78138,19685,Guam,GU,316,57,Micronesia,OC,Oceania,,,1,1,
7268049,Mangilao Village,Mangilao Village,13.44761,144.80109,15191,Guam,GU,316,57,Micronesia,OC,Oceania,,,1,1,
4044012,Hagåtña,Hagåtña,13.47567,144.74886,1051,Guam,GU,316,57,Micronesia,OC,Oceania,1,,1,1,
3590979,Quetzaltenango,Quetzaltenango,14.83472,-91.51806,132230,Guatemala,GT,320,13,Central America,SA,South America,,,1,,1
3598132,Guatemala City,Guatemala City,14.64072,-90.51327,994938,Guatemala,GT,320,13,Central America,SA,South America,1,,1,,1
3042287,St Peter Port,Saint Peter Port,49.45981,-2.53527,16488,Guernsey,GG,831,154,Northern Europe,EU,Europe,1,1,,,1
2420562,Gueckedou,Gueckedou,8.56744,-10.1336,79140,Guinea,GN,324,11,Western Africa,AF,Africa,,,1,,1
2422465,Conakry,Conakry,9.53795,-13.67729,1767200,Guinea,GN,324,11,Western Africa,AF,Africa,1,,1,,1
2372532,Gabú,Gabú,12.28333,-14.21667,14430,Guinea-Bissau,GW,624,11,Western Africa,AF,Africa,,,1,,1
2374775,Bissau,Bissau,11.86357,-15.59767,388028,Guinea-Bissau,GW,624,11,Western Africa,AF,Africa,1,,1,,1
3377408,Linden,Linden,6.00809,-58.30714,44690,Guyana,GY,328,5,South America,SA,South America,,,1,,1
3378644,Georgetown,Georgetown,6.80448,-58.15527,235017,Guyana,GY,328,5,South America,SA,South America,1,,1,,1
3718426,Port-au-Prince,Port-au-Prince,18.53917,-72.335,1234742,Haiti,HT,332,29,Caribbean,SA,South America,1,,1,,1
3724696,Gonaïves,Gonaïves,19.44749,-72.68903,84961,Haiti,HT,332,29,Caribbean,SA,South America,,,1,,1
3600949,Tegucigalpa,Tegucigalpa,14.0818,-87.20681,850848,Honduras,HN,340,13,Central America,SA,South America,1,,1,,1
3601782,San Pedro Sula,San Pedro Sula,15.50417,-88.025,489466,Honduras,HN,340,13,Central America,SA,South America,,,1,,1
1819609,Kowloon,Kowloon,22.31667,114.18333,2019533,Hong Kong,HK,344,30,Eastern Asia,AS,Asia,,1,,1,
1819729,Hong Kong,Hong Kong,22.28552,114.15769,7012738,Hong Kong,HK,344,30,Eastern Asia,AS,Asia,1,1,,1,
721472,Debrecen,Debrecen,47.53333,21.63333,204124,Hungary,HU,348,151,Eastern Europe,EU,Europe,,1,,1,
3054643,Budapest,Budapest,47.49801,19.03991,1741041,Hungary,HU,348,151,Eastern Europe,EU,Europe,1,1,,1,
3413829,Reykjavik,Reykjavík,64.13548,-21.89541,118918,Iceland,IS,352,154,Northern Europe,EU,Europe,1,1,,,1
2633274,Akureyri,Akureyri,65.68353,-18.0878,17693,Iceland,IS,352,154,Northern Europe,EU,Europe,,1,,,1
1253102,Vizag,Vishākhapatnam,17.69004,83.20925,1063178,India,IN,356,34,Southern Asia,AS,Asia,,,1,1,
1253184,Vijayawada,Vijayawāda,16.51928,80.63049,874587,India,IN,356,34,Southern Asia,AS,Asia,,,1,1,
1253405,Varanasi,Vārānasi,25.31668,83.01042,1164404,India,IN,356,34,Southern Asia,AS,Asia,,,1,1,
1253573,Vadodara,Vadodara,22.2994,73.20812,1409476,India,IN,356,34,Southern Asia,AS,Asia,,,1,1,
1254661,Thāne,Thāne,19.19704,72.96356,1261517,India,IN,356,34,Southern Asia,AS,Asia,,,1,1,
1254661,Thāne,Thāne,19.19704,72.96356,1261517,India,IN,356,34,Southern Asia,AS,Asia,,,1,1,
1255364,Surat,Sūrat,21.19594,72.83023,2894504,India,IN,356,34,Southern Asia,AS,Asia,,,1,1,
1255634,Srinagar,Srinagar,34.08842,74.80298,975857,India,IN,356,34,Southern Asia,AS,Asia,,,1,1,
1256436,Solapur,Solāpur,17.67152,75.91044,997281,India,IN,356,34,Southern Asia,AS,Asia,,,1,1,
1257629,Salem,Salem,11.65116,78.15867,778396,India,IN,356,34,Southern Asia,AS,Asia,,,1,1,
1258526,Ranchi,Ranchi,23.34777,85.33856,846454,India,IN,356,34,Southern Asia,AS,Asia,,,1,1,
1258847,Rajkot,Rājkot,22.29161,70.79322,1177362,India,IN,356,34,Southern Asia,AS,Asia,,,1,1,
1258980,Raipur,Raipur,21.23333,81.63333,679995,India,IN,356,34,Southern Asia,AS,Asia,,,1,1,
1259229,Pune,Pune,18.51957,73.85535,2935744,India,IN,356,34,Southern Asia,AS,Asia,,,1,1,
7626690,Pimpri-Chinchwad,Pimpri-Chinchwad,18.61867,73.80375,0,India,IN,356,34,Southern Asia,AS,Asia,,,1,1,
1260086,Patna,Patna,25.60222,85.11936,1599920,India,IN,356,34,Southern Asia,AS,Asia,,,1,1,
1261731,Nashik,Nashik,19.99727,73.79096,1289497,India,IN,356,34,Southern Asia,AS,Asia,,,1,1,
1262180,Nagpur,Nagpur,21.14631,79.08491,2228018,India,IN,356,34,Southern Asia,AS,Asia,,,1,1,
1275339,Mumbai,Mumbai,19.07283,72.88261,12691836,India,IN,356,34,Southern Asia,AS,Asia,,,1,1,
1262801,Morādābād,Morādābād,28.83893,78.77684,721139,India,IN,356,34,Southern Asia,AS,Asia,,,1,1,
1263214,Meerut,Meerut,28.97155,77.71934,1223184,India,IN,356,34,Southern Asia,AS,Asia,,,1,1,
1264521,Madurai,Madurai,9.91735,78.11962,909908,India,IN,356,34,Southern Asia,AS,Asia,,,1,1,
1264728,Ludhiana,Ludhiāna,30.90015,75.85229,1545368,India,IN,356,34,Southern Asia,AS,Asia,,,1,1,
1264733,Lucknow,Lucknow,26.83928,80.92313,2472011,India,IN,356,34,Southern Asia,AS,Asia,,,1,1,
1266049,Kota,Kota,25.18254,75.83906,763088,India,IN,356,34,Southern Asia,AS,Asia,,,1,1,
1275004,Kolkata,Kolkata,22.56263,88.36304,4631392,India,IN,356,34,Southern Asia,AS,Asia,,,1,1,
1273874,Kochi,Cochin,9.93988,76.26022,604696,India,IN,356,34,Southern Asia,AS,Asia,,,1,1,
1267995,Kanpur,Kānpur,26.4478,80.34627,2823249,India,IN,356,34,Southern Asia,AS,Asia,,,1,1,
1268295,Kalyān,Kalyān,19.2437,73.13554,1262255,India,IN,356,34,Southern Asia,AS,Asia,,,1,1,
1268865,Jodhpur,Jodhpur,26.26841,73.00594,921476,India,IN,356,34,Southern Asia,AS,Asia,,,1,1,
1269300,Jamshedpur,Jamshedpur,22.80278,86.18545,616338,India,IN,356,34,Southern Asia,AS,Asia,,,1,1,
1268782,Jalandhar,Jalandhar,31.32556,75.57917,785178,India,IN,356,34,Southern Asia,AS,Asia,,,1,1,
1269515,Jaipur,Jaipur,26.91962,75.78781,2711758,India,IN,356,34,Southern Asia,AS,Asia,,,1,1,
1269633,Jabalpur,Jabalpur,23.16697,79.95006,1030168,India,IN,356,34,Southern Asia,AS,Asia,,,1,1,
1269743,Indore,Indore,22.71792,75.8333,1837041,India,IN,356,34,Southern Asia,AS,Asia,,,1,1,
1269843,Hyderabad,Hyderabad,17.38405,78.45636,3597816,India,IN,356,34,Southern Asia,AS,Asia,,,1,1,
1270396,Howrah,Hāora,22.57688,88.31857,1027672,India,IN,356,34,Southern Asia,AS,Asia,,,1,1,
1270583,Gwalior,Gwalior,26.22982,78.17337,882458,India,IN,356,34,Southern Asia,AS,Asia,,,1,1,
1271476,Guwahati,Guwahati,26.1844,91.7458,899094,India,IN,356,34,Southern Asia,AS,Asia,,,1,1,
1271308,Ghaziabad,Ghāziābād,28.66249,77.43777,1199191,India,IN,356,34,Southern Asia,AS,Asia,,,1,1,
1271951,Faridabad,Farīdābād,28.41252,77.31977,1220229,India,IN,356,34,Southern Asia,AS,Asia,,,1,1,
1272979,Dhanbad,Dhanbād,23.80199,86.44324,219636,India,IN,356,34,Southern Asia,AS,Asia,,,1,1,
1273294,Delhi,Delhi,28.65381,77.22897,10927986,India,IN,356,34,Southern Asia,AS,Asia,1,,1,1,
1273865,Coimbatore,Coimbatore,11.00555,76.96612,959823,India,IN,356,34,Southern Asia,AS,Asia,,,1,1,
1264527,Chennai,Chennai,13.08784,80.27847,4328063,India,IN,356,34,Southern Asia,AS,Asia,,,1,1,
1274746,Chandigarh,Chandigarh,30.73629,76.7884,960787,India,IN,356,34,Southern Asia,AS,Asia,,,1,1,
1275841,Bhopal,Bhopal,23.25469,77.40289,1599914,India,IN,356,34,Southern Asia,AS,Asia,,,1,1,
1277333,Bangalore,Bangalore,12.97194,77.59369,5104047,India,IN,356,34,Southern Asia,AS,Asia,,,1,1,
1278149,Aurangabad,Aurangabad,19.87757,75.34226,1016441,India,IN,356,34,Southern Asia,AS,Asia,,,1,1,
1278710,Amritsar,Amritsar,31.63661,74.87476,1092450,India,IN,356,34,Southern Asia,AS,Asia,,,1,1,
1278994,Allahabad,Allahābād,25.44894,81.83328,1073438,India,IN,356,34,Southern Asia,AS,Asia,,,1,1,
1279233,Ahmedabad,Ahmedabad,23.02579,72.58726,3719710,India,IN,356,34,Southern Asia,AS,Asia,,,1,1,
1279259,Agra,Āgra,27.18333,78.01667,1430055,India,IN,356,34,Southern Asia,AS,Asia,,,1,1,
1625084,Tangerang,Tangerang,-6.17806,106.63,1372124,Indonesia,ID,360,35,South-Eastern Asia,AS,Asia,,,1,1,
1625822,Surabaya,Surabaya,-7.24917,112.75083,2374658,Indonesia,ID,360,35,South-Eastern Asia,AS,Asia,,,1,1,
8581443,South Tangerang,South Tangerang,-6.28862,106.71789,1303569,Indonesia,ID,360,35,South-Eastern Asia,AS,Asia,,,1,1,
1627896,Semarang,Semarang,-6.9932,110.4203,1288084,Indonesia,ID,360,35,South-Eastern Asia,AS,Asia,,,1,1,
1633070,Palembang,Palembang,-2.91673,104.7458,1441500,Indonesia,ID,360,35,South-Eastern Asia,AS,Asia,,,1,1,
1214520,Medan,Medan,3.58333,98.66667,1750971,Indonesia,ID,360,35,South-Eastern Asia,AS,Asia,,,1,1,
1642911,Jakarta,Jakarta,-6.21462,106.84513,8540121,Indonesia,ID,360,35,South-Eastern Asia,AS,Asia,1,,1,1,
1645524,Depok,Depok,-6.4,106.81861,1198129,Indonesia,ID,35,360,South-Eastern Asia,AS,Asia,,,1,1,
1649378,Bekasi,Bekasi,-6.2349,106.9896,1520119,Indonesia,ID,360,35,South-Eastern Asia,AS,Asia,,,1,1,
1650357,Bandung,Bandung,-6.90389,107.61861,1699719,Indonesia,ID,360,35,South-Eastern Asia,AS,Asia,,,1,1,
1622786,Makassar,Makassar,-5.14,119.4221,1321717,Indonesia,ID,360,35,South-Eastern Asia,AS,Asia,,,1,1,
121801,Urmia,Orūmīyeh,37.55274,45.07605,577307,Iran,IR,364,34,Southern Asia,AS,Asia,,,1,1,
112931,Tehran,Tehrān,35.69439,51.42151,7153309,Iran,IR,364,34,Southern Asia,AS,Asia,1,,1,1,
113646,Tabriz,Tabrīz,38.08,46.2919,1424641,Iran,IR,364,34,Southern Asia,AS,Asia,,,1,1,
115019,Shiraz,Shiraz,29.61031,52.53114,1249942,Iran,IR,364,34,Southern Asia,AS,Asia,,,1,1,
119208,Qom,Qom,34.6401,50.8764,900000,Iran,IR,364,34,Southern Asia,AS,Asia,,,1,1,
124665,Mashhad,Mashhad,36.31559,59.56796,2307177,Iran,IR,364,34,Southern Asia,AS,Asia,,,1,1,
128226,Kermanshah,Kermānshāh,34.31417,47.065,621100,Iran,IR,364,34,Southern Asia,AS,Asia,,,1,1,
128747,Karaj,Karaj,35.83266,50.99154,1448075,Iran,IR,364,34,Southern Asia,AS,Asia,,,1,1,
418863,Isfahan,Isfahan,32.65246,51.67462,1547164,Iran,IR,364,34,Southern Asia,AS,Asia,,,1,1,
144448,Ahvaz,Ahvaz,31.31901,48.6842,841145,Iran,IR,364,34,Southern Asia,AS,Asia,,,1,1,
99072,Mosul,Mosul,36.335,43.11889,1739800,Iraq,IQ,368,145,Western Asia,AS,Asia,,,1,1,
95446,Erbil,Erbil,36.19257,44.01062,932800,Iraq,IQ,368,145,Western Asia,AS,Asia,,,1,1,
99532,Basra,Al Başrah,30.53302,47.79747,2600000,Iraq,IQ,368,145,Western Asia,AS,Asia,,,1,1,
98182,Baghdad,Baghdad,33.34058,44.40088,5672513,Iraq,IQ,368,145,Western Asia,AS,Asia,,,1,1,
2964574,Dublin,Dublin,53.33306,-6.24889,1024027,Ireland,IE,372,154,Northern Europe,EU,Europe,1,1,,,1
2965140,Cork,Cork,51.89797,-8.47061,190384,Ireland,IE,372,154,Northern Europe,EU,Europe,,1,,,1
3042237,Douglas,Douglas,54.15,-4.48333,26218,Isle of Man,IM,833,154,Northern Europe,EU,Europe,1,1,,,1
7498240,West Jerusalem,West Jerusalem,31.78199,35.21961,400000,Israel,IL,376,145,Western Asia,AS,Asia,*,1,,1,
293397,Tel Aviv,Tel Aviv,32.08088,34.78057,250000,Israel,IL,376,145,Western Asia,AS,Asia,,1,,1,
3165524,Turin,Turin,45.07049,7.68682,870456,Italy,IT,380,39,Southern Europe,EU,Europe,,1,,1,
3169070,Rome,Rome,41.89474,12.4839,2318895,Italy,IT,380,39,Southern Europe,EU,Europe,1,1,,1,
2523920,Palermo,Palermo,38.11582,13.35976,648260,Italy,IT,380,39,Southern Europe,EU,Europe,,1,,1,
3172394,Naples,Napoli,40.83333,14.25,959470,Italy,IT,380,39,Southern Europe,EU,Europe,,1,,1,
3173435,Milan,Milano,45.46427,9.18951,1236837,Italy,IT,380,39,Southern Europe,EU,Europe,,1,,1,
3176219,Genoa,Genoa,44.40632,8.93386,580223,Italy,IT,380,39,Southern Europe,EU,Europe,,1,,1,
2279755,Yamoussoukro,Yamoussoukro,6.82055,-5.27674,194530,Ivory Coast,CI,384,11,Western Africa,AF,Africa,1,,1,,1
2290956,Bouaké,Bouaké,7.69385,-5.03031,567481,Ivory Coast,CI,384,11,Western Africa,AF,Africa,,,1,,1
2293538,Abidjan,Abidjan,5.30966,-4.01266,3677115,Ivory Coast,CI,384,11,Western Africa,AF,Africa,,,1,,1
3488465,Spanish Town,Spanish Town,17.99107,-76.95742,145018,Jamaica,JM,388,29,Caribbean,SA,South America,,,1,,1
3489854,Kingston,Kingston,17.99702,-76.79358,937700,Jamaica,JM,388,29,Caribbean,SA,South America,1,,1,,1
1848354,Yokohama,Yokohama-shi,35.44778,139.6425,3574443,Japan,JP,392,30,Eastern Asia,AS,Asia,,1,,1,
1850147,Tokyo,Tokyo,35.6895,139.69171,8336599,Japan,JP,392,30,Eastern Asia,AS,Asia,1,1,,1,
1851717,Shizuoka,Shizuoka-shi,34.97694,138.38306,701561,Japan,JP,392,30,Eastern Asia,AS,Asia,,1,,1,
2111149,Sendai,Sendai-shi,38.26889,140.87194,1063103,Japan,JP,392,30,Eastern Asia,AS,Asia,,1,,1,
2128295,Sapporo,Sapporo,43.06417,141.34694,1883027,Japan,JP,392,30,Eastern Asia,AS,Asia,,1,,1,
6940394,Saitama,Saitama,35.90807,139.65657,1193350,Japan,JP,392,30,Eastern Asia,AS,Asia,,1,,1,
1853909,Osaka,Ōsaka-shi,34.69374,135.50218,2592413,Japan,JP,392,30,Eastern Asia,AS,Asia,,1,,1,
1854383,Okayama,Okayama-shi,34.66167,133.935,639652,Japan,JP,392,30,Eastern Asia,AS,Asia,,1,,1,
1855431,Niigata,Niigata-shi,37.90222,139.02361,505272,Japan,JP,392,30,Eastern Asia,AS,Asia,,1,,1,
1856057,Nagoya-shi,Nagoya-shi,35.18147,136.90641,2191279,Japan,JP,392,30,Eastern Asia,AS,Asia,,1,,1,
1857910,Kyoto,Kyoto,35.02107,135.75385,1459640,Japan,JP,392,30,Eastern Asia,AS,Asia,,1,,1,
1858421,Kumamoto,Kumamoto,32.80589,130.69181,680423,Japan,JP,392,30,Eastern Asia,AS,Asia,,1,,1,
1859171,Kobe,Kōbe-shi,34.6913,135.183,1528478,Japan,JP,392,30,Eastern Asia,AS,Asia,,1,,1,
1859307,Kitakyushu,Kitakyūshū,33.83333,130.83333,997536,Japan,JP,392,30,Eastern Asia,AS,Asia,,1,,1,
1859642,Kawasaki,Kawasaki,35.52056,139.71722,1306785,Japan,JP,392,30,Eastern Asia,AS,Asia,,1,,1,
1862415,Hiroshima,Hiroshima-shi,34.39627,132.45937,1143841,Japan,JP,392,30,Eastern Asia,AS,Asia,,1,,1,
1863289,Hamamatsu City,Hamamatsu,34.7,137.73333,605098,Japan,JP,392,30,Eastern Asia,AS,Asia,,1,,1,
1863967,Fukuoka,Fukuoka-shi,33.60639,130.41806,1392289,Japan,JP,392,30,Eastern Asia,AS,Asia,,1,,1,
2113015,Chiba,Chiba,35.60472,140.12333,919729,Japan,JP,392,30,Eastern Asia,AS,Asia,,1,,1,
3042091,Saint Helier,Saint Helier,49.18804,-2.10491,28000,Jersey,JE,832,154,Northern Europe,EU,Europe,1,1,,,1
250090,Zarqa,Zarqa,32.07275,36.08796,792665,Jordan,JO,400,145,Western Asia,AS,Asia,,,1,1,
250441,Amman,Amman,31.95522,35.94503,1275857,Jordan,JO,400,145,Western Asia,AS,Asia,1,,1,1,
1526273,Astana,Astana,51.1801,71.44598,345604,Kazakhstan,KZ,398,143,Central Asia,AS,Asia,1,,1,1,
1526384,Almaty,Almaty,43.25654,76.92848,2000900,Kazakhstan,KZ,398,143,Central Asia,AS,Asia,,,1,1,
184622,Nakuru,Nakuru,-0.28333,36.06667,259903,Kenya,KE,404,14,Eastern Africa,AF,Africa,,,1,1,
184745,Nairobi,Nairobi,-1.28333,36.81667,2750547,Kenya,KE,404,14,Eastern Africa,AF,Africa,1,,1,1,
186301,Mombasa,Mombasa,-4.05466,39.66359,799668,Kenya,KE,404,14,Eastern Africa,AF,Africa,,,1,1,
191245,Kisumu,Kisumu,-0.10221,34.76171,216479,Kenya,KE,404,14,Eastern Africa,AF,Africa,,,1,1,
2110257,Tarawa,Tarawa,1.3278,172.97696,40311,Kiribati,KI,296,57,Micronesia,OC,Oceania,1,,1,,1
7601762,Bairiki Village,Bairiki Village,1.32924,172.97522,2766,Kiribati,KI,296,57,Micronesia,OC,Oceania,,,1,,1
786712,Prizren,Prizren,42.21389,20.73972,171464,Kosovo,XK,,39,Southern Europe,EU,Europe,,1,,1,
786714,Prishtina,Pristina,42.67272,21.16688,550000,Kosovo,XK,,39,Southern Europe,EU,Europe,1,1,,1,
285787,Kuwait City,Kuwait City,29.36972,47.97833,60064,Kuwait,KW,414,145,Western Asia,AS,Asia,1,,1,1,
285799,Al Jahra,Al Jahrā’,29.3375,47.65806,24281,Kuwait,KW,414,145,Western Asia,AS,Asia,,,1,1,
1527534,Osh,Osh,40.51506,72.80826,200000,Kyrgyzstan,KG,417,143,Central Asia,AS,Asia,,,1,1,
1528675,Bishkek,Bishkek,42.87,74.59,900000,Kyrgyzstan,KG,417,143,Central Asia,AS,Asia,1,,1,1,
1651944,Vientiane,Vientiane,17.96667,102.6,196731,Laos,LA,418,35,South-Eastern Asia,AS,Asia,1,,1,1,
1653316,Savannakhét,Savannakhét,16.56504,104.75273,66553,Laos,LA,418,35,South-Eastern Asia,AS,Asia,,,1,1,
1654379,Pakxe,Pakxé,15.12022,105.79898,88332,Laos,LA,418,35,South-Eastern Asia,AS,Asia,,,1,1,
456172,Riga,Riga,56.946,24.10589,742572,Latvia,LV,428,154,Northern Europe,EU,Europe,1,1,,1,
460413,Daugavpils,Daugavpils,55.88333,26.53333,111564,Latvia,LV,428,154,Northern Europe,EU,Europe,,1,,1,
266826,Tripoli,Tripoli,34.43667,35.84972,229398,Lebanon,LB,422,145,Western Asia,AS,Asia,,,1,1,
276781,Beirut,Beirut,33.88894,35.49442,1916100,Lebanon,LB,422,145,Western Asia,AS,Asia,1,,1,1,
932505,Maseru,Maseru,-29.31667,27.48333,118355,Lesotho,LS,426,18,Southern Africa,AF,Africa,1,,1,1,
932698,Hlotse,Leribe,-28.87185,28.04501,47675,Lesotho,LS,426,18,Southern Africa,AF,Africa,,,1,1,
2274895,Monrovia,Monrovia,6.30054,-10.7969,939524,Liberia,LR,430,11,Western Africa,AF,Africa,1,,1,,1
2277060,Gbarnga,Gbarnga,6.99556,-9.47222,45835,Liberia,LR,430,11,Western Africa,AF,Africa,,,1,,1
88319,Benghazi,Benghazi,32.11486,20.06859,650629,Libya,LY,434,15,Northern Africa,AF,Africa,,,1,1,
3042030,Vaduz,Vaduz,47.14151,9.52154,5197,Liechtenstein,LI,438,155,Western Europe,EU,Europe,1,1,,1,
593116,Vilnius,Vilnius,54.68916,25.2798,542366,Lithuania,LT,440,154,Northern Europe,EU,Europe,1,1,,1,
598316,Kaunas,Kaunas,54.9,23.9,374643,Lithuania,LT,440,154,Northern Europe,EU,Europe,,1,,1,
2960316,Luxembourg City,Luxembourg,49.61167,6.13,76684,Luxembourg,LU,442,155,Western Europe,EU,Europe,1,1,,1,
2960596,Esch-sur-Alzette,Esch-sur-Alzette,49.49583,5.98056,28228,Luxembourg,LU,442,155,Western Europe,EU,Europe,,1,,1,
785842,Skopje,Skopje,41.99646,21.43141,474889,Macedonia,MK,807,39,Southern Europe,EU,Europe,1,1,,1,
792578,Bitola,Bitola,41.03111,21.34028,86528,Macedonia,MK,807,39,Southern Europe,EU,Europe,,1,,1,
1053384,Toamasina,Toamasina,-18.1492,49.40234,206373,Madagascar,MG,450,14,Eastern Africa,AF,Africa,,,1,1,
1070940,Antananarivo,Antananarivo,-18.91368,47.53613,1391433,Madagascar,MG,450,14,Eastern Africa,AF,Africa,1,,1,1,
927967,Lilongwe,Lilongwe,-13.96692,33.78725,646750,Malawi,MW,454,14,Eastern Africa,AF,Africa,1,,1,1,
931755,Blantyre,Blantyre,-15.78499,35.00854,584877,Malawi,MW,454,14,Eastern Africa,AF,Africa,,,1,1,
6697380,Putrajaya,Putrajaya,2.93527,101.69112,50000,Malaysia,MY,458,35,South-Eastern Asia,AS,Asia,,,1,1,
1735161,Kuala Lumpur,Kuala Lumpur,3.1412,101.68653,1453975,Malaysia,MY,458,35,South-Eastern Asia,AS,Asia,1,,1,1,
1764775,Kampung Seberang Perai,Kampung Seberang Perai,2.3537,102.2158,0,Malaysia,MY,458,35,South-Eastern Asia,AS,Asia,,,1,1,
1282027,Malé,Male,4.1748,73.50888,103693,Maldives,MV,462,34,Southern Asia,AS,Asia,1,,1,1,
2451185,Sikasso,Sikasso,11.31755,-5.66654,144786,Mali,ML,466,11,Western Africa,AF,Africa,,,1,1,1
2451478,Ségou,Ségou,13.4317,-6.2157,92552,Mali,ML,466,11,Western Africa,AF,Africa,,,1,1,1
2454268,Koutiala,Koutiala,12.39173,-5.46421,99353,Mali,ML,466,11,Western Africa,AF,Africa,,,1,1,1
2455518,Kayes,Kayes,14.44693,-11.44448,78406,Mali,ML,466,11,Western Africa,AF,Africa,,,1,1,1
2460596,Bamako,Bamako,12.65,-8,1297281,Mali,ML,466,11,Western Africa,AF,Africa,1,,1,1,1
2455914,"
Kalaban Koro",Koulikoro,12.57329,-8.02907,23919,Mali,ML,466,11,Western Africa,AF,Africa,,,1,1,1
2562305,Valletta,Valletta,35.89972,14.51472,6794,Malta,MT,470,39,Southern Europe,EU,Europe,1,1,,1,
2562704,Mosta,Mosta,35.90917,14.42556,17789,Malta,MT,470,39,Southern Europe,EU,Europe,,1,,1,
2563191,Birkirkara,Birkirkara,35.89722,14.46111,21676,Malta,MT,470,39,Southern Europe,EU,Europe,,1,,1,
2113779,Majuro,Majuro,7.08971,171.38027,25400,Marshall Islands,MH,584,57,Micronesia,OC,Oceania,1,,1,1,
2377450,Nouakchott,Nouakchott,18.08581,-15.9785,661400,Mauritania,MR,478,11,Western Africa,AF,Africa,1,,1,,1
2378538,Kiffa,Kiffa,16.61659,-11.40453,40281,Mauritania,MR,478,11,Western Africa,AF,Africa,,,1,,1
934154,Port Louis,Port Louis,-20.16194,57.49889,155226,Mauritius,MU,480,14,Eastern Africa,AF,Africa,1,,1,1,
921815,Mamoudzou,Mamoudzou,-12.78234,45.22878,54831,Mayotte,YT,175,14,Eastern Africa,AF,Africa,1,,1,1,
921900,Dzaoudzi,Dzaoudzi,-12.78339,45.25693,15339,Mayotte,YT,175,14,Eastern Africa,AF,Africa,,,1,1,
3979770,Zapopan,Zapopan,20.72356,-103.38479,987516,Mexico,MX,484,13,Central America,SA,South America,,,1,,1
3514783,Veracruz,Veracruz,19.18074,-96.13405,568313,Mexico,MX,484,13,Central America,SA,South America,,,1,,1
3981609,Tijuana,Tijuana,32.5027,-117.00371,1376457,Mexico,MX,484,13,Central America,SA,South America,,,1,,1
3985606,San Luis Potosí,San Luis Potosí,22.14993,-100.9828,677704,Mexico,MX,484,13,Central America,SA,South America,,,1,,1
3988086,Saltillo,Saltillo,25.41942,-101.00128,621250,Mexico,MX,484,13,Central America,SA,South America,,,1,,1
3521081,Puebla,Puebla,19.04334,-98.20193,1590256,Mexico,MX,484,13,Central America,SA,South America,,,1,,1
3522790,Naucalpan,Naucalpan de Juárez,19.47851,-99.23963,846185,Mexico,MX,484,13,Central America,SA,South America,,,1,,1
3995465,Monterrey,Monterrey,25.67506,-100.31846,1122874,Mexico,MX,484,13,Central America,SA,South America,,,1,,1
3530597,Mexico City,Mexico City,19.42847,-99.12766,12294193,Mexico,MX,484,13,Central America,SA,South America,1,,1,,1
3996069,Mexicali,Mexicali,32.62781,-115.45446,597099,Mexico,MX,484,13,Central America,SA,South America,,,1,,1
3991164,León,Santiago de Querétaro,20.58806,-100.38806,626495,Mexico,MX,484,13,Central America,SA,South America,,,1,,1
4013708,Juárez,Ciudad Juárez,31.73333,-106.48333,1512354,Mexico,MX,484,13,Central America,SA,South America,,,1,,1
4004898,Hermosillo,Hermosillo,29.0971,-110.95749,595811,Mexico,MX,484,13,Central America,SA,South America,,,1,,1
4005539,Guadalajara,Guadalajara,20.66682,-103.39182,1640589,Mexico,MX,484,13,Central America,SA,South America,,,1,,1
3529612,Ecatepec de Morelos,Ecatepec,19.61725,-99.06601,1806226,Mexico,MX,484,13,Central America,SA,South America,,,1,,1
3530589,Ciudad Neza,Ciudad Nezahualcóyotl,19.40061,-99.01483,309003,Mexico,MX,484,13,Central America,SA,South America,,,1,,1
4014338,Chihuahua,Chihuahua,28.63528,-106.08889,809232,Mexico,MX,484,13,Central America,SA,South America,,,1,,1
4019233,Aguascalientes,Aguascalientes,21.88,-102.283,658179,Mexico,MX,484,13,Central America,SA,South America,,,1,,1
2081114,Weno Town,Weno Town,7.45154,151.8468,13856,Micronesia,FM,583,57,Micronesia,OC,Oceania,,,1,1,
2081986,Palikir,Palikir - National Government Center,6.92477,158.16109,0,Micronesia,FM,583,57,Micronesia,OC,Oceania,1,,1,1,
617239,Tiraspol,Tiraspol,46.84028,29.64333,157000,Moldova,MD,498,151,Eastern Europe,EU,Europe,,1,,1,
618426,Chişinău,Chişinău,47.00556,28.8575,635994,Moldova,MD,498,151,Eastern Europe,EU,Europe,1,1,,1,
618605,Bălţi,Bălţi,47.76167,27.92889,125000,Moldova,MD,498,151,Eastern Europe,EU,Europe,,1,,1,
2992741,Monte Carlo,Monte-Carlo,43.73976,7.42732,16012,Monaco,MC,492,155,Western Europe,EU,Europe,,1,,1,
2993458,Monaco,Monaco,43.73333,7.41667,32965,Monaco,MC,492,155,Western Europe,EU,Europe,1,1,,1,
3009937,La Condamine,La Condamine,43.7344,7.42024,12167,Monaco,MC,492,155,Western Europe,EU,Europe,,1,,1,
2028462,Ulan Bator,Ulaanbaatar,47.90771,106.88324,844818,Mongolia,MN,496,30,Eastern Asia,AS,Asia,1,,1,1,
2031405,Erdenet,Erdenet,49.03333,104.08333,79647,Mongolia,MN,496,30,Eastern Asia,AS,Asia,,,1,1,
3193044,Podgorica,Podgorica,42.44111,19.26361,136473,Montenegro,ME,499,39,Southern Europe,EU,Europe,1,1,,1,
3194494,Nikšić,Nikšić,42.7731,18.94446,58212,Montenegro,ME,499,39,Southern Europe,EU,Europe,,1,,1,
3202641,Cetinje,Cetinje,42.39063,18.91417,15137,Montenegro,ME,499,39,Southern Europe,EU,Europe,,1,,1,
3578069,Plymouth,Plymouth,16.70555,-62.21292,0,Montserrat,MS,500,29,Caribbean,SA,South America,1,,1,,1
7266440,Brades,Brades,16.79183,-62.21058,1000,Montserrat,MS,500,29,Caribbean,SA,South America,1,,1,,1
2528910,Tétouan,Tétouan,35.57845,-5.36837,326261,Morocco,MA,504,15,Northern Africa,AF,Africa,,,1,,1
2530335,Tangier,Tangier,35.76727,-5.79975,688356,Morocco,MA,504,15,Northern Africa,AF,Africa,,,1,,1
2537763,Salé,Sale,34.0531,-6.79846,903485,Morocco,MA,504,15,Northern Africa,AF,Africa,,,1,,1
2538475,Rabat,Rabat,34.01325,-6.83255,1655753,Morocco,MA,504,15,Northern Africa,AF,Africa,1,,1,,1
2540483,Oujda,Oujda,34.68052,-1.90764,405253,Morocco,MA,504,15,Northern Africa,AF,Africa,,,1,,1
2542715,Meknes,Meknès,33.89352,-5.54727,545705,Morocco,MA,504,15,Northern Africa,AF,Africa,,,1,,1
2542997,Marrakesh,Marrakesh,31.63416,-7.99994,839296,Morocco,MA,504,15,Northern Africa,AF,Africa,,,1,,1
2544571,Kenitra,Kenitra,34.26101,-6.5802,366570,Morocco,MA,504,15,Northern Africa,AF,Africa,,,1,,1
2548885,Fes,Fès,34.03715,-4.9998,964891,Morocco,MA,504,15,Northern Africa,AF,Africa,,,1,,1
2553604,Casablanca,Casablanca,33.58831,-7.61138,3144909,Morocco,MA,504,15,Northern Africa,AF,Africa,,,1,,1
1033356,Nampula,Nampula,-15.11646,39.2666,388526,Mozambique,MZ,508,14,Eastern Africa,AF,Africa,,,1,1,
1040652,Maputo,Maputo,-25.96553,32.58322,1191613,Mozambique,MZ,508,14,Eastern Africa,AF,Africa,1,,1,1,
1298824,Yangon,Rangoon,16.80528,96.15611,4477638,Myanmar [Burma],MM,104,35,South-Eastern Asia,AS,Asia,,,1,1,
6611854,Naypyidaw,Nay Pyi Taw,19.745,96.12972,925000,Myanmar [Burma],MM,104,35,South-Eastern Asia,AS,Asia,1,,1,1,
1311874,Mandalay,Mandalay,21.97473,96.08359,1208099,Myanmar [Burma],MM,104,35,South-Eastern Asia,AS,Asia,,,1,1,
3352136,Windhoek,Windhoek,-22.55941,17.08323,268132,Namibia,NA,516,18,Southern Africa,AF,Africa,1,,1,1,
3353383,Rundu,Rundu,-17.93333,19.76667,58172,Namibia,NA,516,18,Southern Africa,AF,Africa,,,1,1,
7626461,Yaren,Yaren,-0.55085,166.9252,1100,Nauru,NR,520,57,Micronesia,OC,Oceania,1,,1,1,
1282898,Pokhara,Pokhara,28.26689,83.96851,200000,Nepal,NP,524,34,Southern Asia,AS,Asia,,,1,1,
1283240,Kathmandu,Kathmandu,27.70169,85.3206,1442271,Nepal,NP,524,34,Southern Asia,AS,Asia,1,,1,1,
2745912,Utrecht,Utrecht,52.09083,5.12222,290529,Netherlands,NL,528,155,Western Europe,EU,Europe,,1,,1,
2747373,The Hague,The Hague,52.07667,4.29861,474292,Netherlands,NL,528,155,Western Europe,EU,Europe,,1,,1,
2747891,Rotterdam,Rotterdam,51.9225,4.47917,598199,Netherlands,NL,528,155,Western Europe,EU,Europe,,1,,1,
2759794,Amsterdam,Amsterdam,52.37403,4.88969,741636,Netherlands,NL,528,155,Western Europe,EU,Europe,1,1,,1,
2137690,Wé,Wé,-20.91687,167.26461,10375,New Caledonia,NC,540,54,Melanesia,OC,Oceania,,,1,1,
2139521,Noumea,Nouméa,-22.27631,166.4572,93060,New Caledonia,NC,540,54,Melanesia,OC,Oceania,1,,1,1,
2179537,Wellington,Wellington,-41.28664,174.77557,381900,New Zealand,NZ,554,53,Australia and New Zealand,OC,Oceania,1,1,,1,
2193733,Auckland,Auckland,-36.86667,174.76667,417910,New Zealand,NZ,554,53,Australia and New Zealand,OC,Oceania,,1,,1,
3617763,Managua,Managua,12.13282,-86.2504,973087,Nicaragua,NI,558,13,Central America,SA,South America,1,,1,,1
3618030,León,León,12.43787,-86.87804,144538,Nicaragua,NI,558,13,Central America,SA,South America,,,1,,1
2437798,Zinder,Zinder,13.80716,8.9881,191424,Niger,NE,562,11,Western Africa,AF,Africa,,,1,1,
2440485,Niamey,Niamey,13.51366,2.1098,774235,Niger,NE,562,11,Western Africa,AF,Africa,1,,1,1,
2317765,Zaria,Zaria,11.11128,7.7227,975153,Nigeria,NG,566,11,Western Africa,AF,Africa,,,1,1,
2324774,Port Harcourt,Port Harcourt,4.77742,7.0134,1148665,Nigeria,NG,566,11,Western Africa,AF,Africa,,,1,1,
2327735,Ogbomoso,Ogbomoso,8.13333,4.26667,0,Nigeria,NG,566,11,Western Africa,AF,Africa,,,1,1,
2331447,Maiduguri,Maiduguri,11.84644,13.16027,1112449,Nigeria,NG,566,11,Western Africa,AF,Africa,,,1,1,
2332459,Lagos,Lagos,6.45306,3.39583,9000000,Nigeria,NG,566,11,Western Africa,AF,Africa,,,1,1,
2335204,Kano,Kano,12.00012,8.51672,3626068,Nigeria,NG,566,11,Western Africa,AF,Africa,,,1,1,
2335727,Kaduna,Kaduna,10.52224,7.43828,1582102,Nigeria,NG,566,11,Western Africa,AF,Africa,,,1,1,
2335953,Jos,Jos,9.91667,8.9,816824,Nigeria,NG,566,11,Western Africa,AF,Africa,,,1,1,
2337639,Ilorin,Ilorin,8.5,4.55,814192,Nigeria,NG,566,11,Western Africa,AF,Africa,,,1,1,
2339354,Ibadan,Ibadan,7.38778,3.89639,3565108,Nigeria,NG,566,11,Western Africa,AF,Africa,,,1,1,
2339354,Ibadan,Ibadan,7.38778,3.89639,3565108,Nigeria,NG,566,11,Western Africa,AF,Africa,,,1,1,
2343279,Enugu,Enugu,6.4402,7.4943,688862,Nigeria,NG,566,11,Western Africa,AF,Africa,,,1,1,
2347283,Benin City,Benin City,6.33504,5.62749,1125058,Nigeria,NG,566,11,Western Africa,AF,Africa,,,1,1,
2352778,Abuja,Abuja,9.05785,7.49508,590400,Nigeria,NG,566,11,Western Africa,AF,Africa,1,,1,1,
2352947,Abeokuta,Abeokuta,7.15,3.35,593100,Nigeria,NG,566,11,Western Africa,AF,Africa,,,1,1,
2353151,Aba,Aba,5.10658,7.36667,897560,Nigeria,NG,566,11,Western Africa,AF,Africa,,,1,1,
4036284,Alofi,Alofi,-19.05952,-169.91867,624,Niue,NU,570,61,Polynesia,OC,Oceania,1,,1,1,
2161314,Kingston,Kingston,-29.05459,167.96628,880,Norfolk Island,NF,574,53,Australia and New Zealand,OC,Oceania,1,,1,1,
1871859,Pyongyang,Pyongyang,39.03385,125.75432,3222000,North Korea,KP,408,30,Eastern Asia,AS,Asia,1,1,,1,
1877449,Hamhung,Hamhŭng,39.91833,127.53639,559056,North Korea,KP,408,30,Eastern Asia,AS,Asia,,1,,1,
2044757,Chongjin,Chongjin,41.79556,129.77583,327000,North Korea,KP,408,30,Eastern Asia,AS,Asia,,1,,1,
7828758,Saipan,Saipan,15.21233,145.7545,48220,Northern Mariana Islands,MP,580,57,Micronesia,OC,Oceania,1,,1,1,
3143244,Oslo,Oslo,59.91273,10.74609,580000,Norway,NO,578,154,Northern Europe,EU,Europe,1,1,,1,
3161732,Bergen,Bergen,60.39299,5.32415,213585,Norway,NO,578,154,Northern Europe,EU,Europe,,1,,1,
286621,Salalah,Şalālah,17.01505,54.09237,163140,Oman,OM,512,145,Western Asia,AS,Asia,,,1,1,
287286,Muscat,Muscat,23.61387,58.5922,797000,Oman,OM,512,145,Western Asia,AS,Asia,1,,1,1,
1166993,Rawalpindi,Rāwalpindi,33.6007,73.0679,1743101,Pakistan,PK,586,34,Southern Asia,AS,Asia,,,1,1,
1168197,Peshāwar,Peshāwar,34.008,71.57849,1218773,Pakistan,PK,586,34,Southern Asia,AS,Asia,,,1,1,
1169825,Multan,Multān,30.19556,71.47528,1437230,Pakistan,PK,586,34,Southern Asia,AS,Asia,,,1,1,
1172451,Lahore,Lahore,31.54972,74.34361,6310888,Pakistan,PK,586,34,Southern Asia,AS,Asia,,,1,1,
1174872,Karachi,Karachi,24.9056,67.0822,11624219,Pakistan,PK,586,34,Southern Asia,AS,Asia,,,1,1,
1176615,Islamabad,Islamabad,33.72148,73.04329,601600,Pakistan,PK,586,34,Southern Asia,AS,Asia,1,,1,1,
1176734,Hyderābād,Hyderābād,25.39242,68.37366,1386330,Pakistan,PK,586,34,Southern Asia,AS,Asia,,,1,1,
1177662,Gujranwala,Gujrānwāla,32.16167,74.18831,1384471,Pakistan,PK,586,34,Southern Asia,AS,Asia,,,1,1,
1179400,Faisalabad,Faisalābād,31.41667,73.08333,2506595,Pakistan,PK,586,34,Southern Asia,AS,Asia,,,1,1,
1183880,Bahāwalpur,Bahāwalpur,29.4,71.68333,552607,Pakistan,PK,586,34,Southern Asia,AS,Asia,,,1,1,
7303944,Melekeok,Melekeok,7.50043,134.62355,271,Palau,PW,585,57,Micronesia,OC,Oceania,1,,1,1,
1559446,Koror State,Koror State,7.33978,134.47326,14000,Palau,PW,585,57,Micronesia,OC,Oceania,,,1,1,
282239,Ramallah,Ramallah,31.89964,35.20422,24599,Palestine,PS,275,145,Western Asia,AS,Asia,1,,1,1,
285066,Hebron,Hebron,31.52935,35.0938,160470,Palestine,PS,275,145,Western Asia,AS,Asia,,,1,1,
281133,Gaza,Gaza,31.5,34.46667,410000,Palestine,PS,275,145,Western Asia,AS,Asia,,,1,1,
3703443,Panama City,Panamá,8.9936,-79.51973,408168,Panama,PA,591,13,Central America,SA,South America,1,,1,,1
3711668,David,David,8.42729,-82.43085,82859,Panama,PA,591,13,Central America,SA,South America,,,1,,1
2088122,Port Moresby,Port Moresby,-9.44314,147.17972,283733,Papua New Guinea,PG,598,54,Melanesia,OC,Oceania,1,,1,1,
2092740,Lae,Lae,-6.72208,146.98469,76255,Papua New Guinea,PG,598,54,Melanesia,OC,Oceania,,,1,1,
3439101,Ciudad del Este,Ciudad del Este,-25.50972,-54.61111,320782,Paraguay,PY,600,5,South America,SA,South America,,,1,,1
3439389,Asunción,Asunción,-25.30066,-57.63591,1482200,Paraguay,PY,600,5,South America,SA,South America,1,,1,,1
3691175,Trujillo,Trujillo,-8.11599,-79.02998,747450,Peru,PE,604,5,South America,SA,South America,,,1,,1
3936456,Lima,Lima,-12.04318,-77.02824,7737002,Peru,PE,604,5,South America,SA,South America,1,,1,,1
3947322,Arequipa,Arequipa,-16.39889,-71.535,841130,Peru,PE,604,5,South America,SA,South America,,,1,,1
3946083,Callao,Callao,-12.05658,-77.11814,813264,Peru,PE,604,5,South America,SA,South America,,,1,,1
1679404,Zapote,Zapote,14.45028,120.96722,0,Philippines,PH,608,35,South-Eastern Asia,AS,Asia,,,1,1,
1679432,Zamboanga City,Zamboanga,6.91028,122.07389,457623,Philippines,PH,608,35,South-Eastern Asia,AS,Asia,,,1,1,
1683013,Tanza,Tanza,14.6753,120.9389,105510,Philippines,PH,608,35,South-Eastern Asia,AS,Asia,,,1,1,
6759129,Tanga,Tanga,5.107,120.2773,0,Philippines,PH,608,35,South-Eastern Asia,AS,Asia,,,1,1,
1692192,Quezon City,Quezon City,14.6488,121.0509,2761720,Philippines,PH,608,35,South-Eastern Asia,AS,Asia,,,1,1,
1701668,Manila,Manila,14.6042,120.9822,10444527,Philippines,PH,608,35,South-Eastern Asia,AS,Asia,1,,1,1,
1703417,Makati City,Makati City,14.55027,121.03269,510383,Philippines,PH,608,35,South-Eastern Asia,AS,Asia,,,1,1,
1713014,General Trias,General Trias,14.38694,120.88167,96022,Philippines,PH,608,35,South-Eastern Asia,AS,Asia,,,1,1,
1715348,Davao City,Davao,7.07306,125.61278,1212504,Philippines,PH,608,35,South-Eastern Asia,AS,Asia,,,1,1,
1717512,Cebu City,Cebu City,10.317,123.891,798634,Philippines,PH,608,35,South-Eastern Asia,AS,Asia,,,1,1,
1730501,Antipolo,Antipolo,14.58639,121.17528,549543,Philippines,PH,608,35,South-Eastern Asia,AS,Asia,,,1,1,
4030723,Adamstown,Adamstown,-25.06597,-130.10147,46,Pitcairn Islands,PN,612,61,Polynesia,OC,Oceania,1,,1,,1
3081368,Wrocław,Wrocław,51.1,17.03333,634893,Poland,PL,616,151,Eastern Europe,EU,Europe,,1,,1,
756135,Warsaw,Warsaw,52.22977,21.01178,1702139,Poland,PL,616,151,Eastern Europe,EU,Europe,1,1,,1,
3093133,Łódź,Łódź,51.75,19.46667,768755,Poland,PL,616,151,Eastern Europe,EU,Europe,,1,,1,
3094802,Krakow,Kraków,50.06143,19.93658,755050,Poland,PL,616,151,Eastern Europe,EU,Europe,,1,,1,
2735943,Porto,Porto,41.14961,-8.61099,249633,Portugal,PT,620,39,Southern Europe,EU,Europe,,1,,,1
2267057,Lisbon,Lisbon,38.71667,-9.13333,517802,Portugal,PT,620,39,Southern Europe,EU,Europe,1,1,,,1
4568127,San Juan,San Juan,18.46633,-66.10572,418140,Puerto Rico,PR,630,29,Caribbean,SA,South America,1,,1,,1
4562831,Bayamón,Bayamón,18.39856,-66.15572,203499,Puerto Rico,PR,630,29,Caribbean,SA,South America,,,1,,1
290030,Doha,Doha,25.27932,51.52245,344939,Qatar,QA,634,145,Western Asia,AS,Asia,1,,1,1,
289962,Al Khawr,Al Khawr,25.68389,51.50583,18923,Qatar,QA,634,145,Western Asia,AS,Asia,,,1,1,
2255414,Pointe-Noire,Pointe-Noire,-4.77609,11.86352,659084,Republic of the Congo,CG,178,17,Middle Africa,AF,Africa,,,1,1,
2260535,Brazzaville,Brazzaville,-4.26613,15.28318,1284609,Republic of the Congo,CG,178,17,Middle Africa,AF,Africa,1,,1,1,
681290,Cluj-Napoca,Cluj-Napoca,46.76667,23.6,316748,Romania,RO,642,151,Eastern Europe,EU,Europe,,1,,1,
683506,Bucharest,Bucharest,44.43225,26.10626,1877155,Romania,RO,642,151,Eastern Europe,EU,Europe,1,1,,1,
1486209,Yekaterinburg,Yekaterinburg,56.8519,60.6122,1349772,Russia,RU,643,151,Eastern Europe,EU,Europe,,1,,1,
468902,Yaroslavl,Yaroslavl,57.62987,39.87368,606730,Russia,RU,643,151,Eastern Europe,EU,Europe,,1,,1,
472045,Voronezh,Voronezh,51.67204,39.1843,848752,Russia,RU,643,151,Eastern Europe,EU,Europe,,1,,1,
472757,Volgograd,Volgograd,48.71939,44.50184,1011417,Russia,RU,643,151,Eastern Europe,EU,Europe,,1,,1,
479123,Ulyanovsk,Ulyanovsk,54.32824,48.38657,640680,Russia,RU,643,151,Eastern Europe,EU,Europe,,1,,1,
479561,Ufa,Ufa,54.74306,55.96779,1033338,Russia,RU,643,151,Eastern Europe,EU,Europe,,1,,1,
1488754,Tyumen,Tyumen,57.15222,65.52722,519119,Russia,RU,643,151,Eastern Europe,EU,Europe,,1,,1,
1489425,Tomsk,Tomsk,56.49771,84.97437,485519,Russia,RU,643,151,Eastern Europe,EU,Europe,,1,,1,
482283,Tolyatti,Tol’yatti,53.5303,49.3461,702879,Russia,RU,643,151,Eastern Europe,EU,Europe,,1,,1,
498677,Saratov,Saratov,51.54056,46.00861,863725,Russia,RU,643,151,Eastern Europe,EU,Europe,,1,,1,
499099,Samara,Samara,53.20006,50.15,1134730,Russia,RU,643,151,Eastern Europe,EU,Europe,,1,,1,
498817,Saint-Petersburg,Saint Petersburg,59.93863,30.31413,5028000,Russia,RU,643,151,Eastern Europe,EU,Europe,,1,,1,
500096,Ryazan,Ryazan’,54.6269,39.6916,520173,Russia,RU,643,151,Eastern Europe,EU,Europe,,1,,1,
501175,Rostov-on-Don,Rostov-na-Donu,47.23135,39.72328,1074482,Russia,RU,643,151,Eastern Europe,EU,Europe,,1,,1,
515003,Orenburg,Orenburg,51.7727,55.0988,550204,Russia,RU,643,151,Eastern Europe,EU,Europe,,1,,1,
1496153,Omsk,Omsk,54.99244,73.36859,1129281,Russia,RU,643,151,Eastern Europe,EU,Europe,,1,,1,
1496747,Novosibirsk,Novosibirsk,55.0415,82.9346,1419007,Russia,RU,643,151,Eastern Europe,EU,Europe,,1,,1,
1496990,Novokuznetsk,Novokuznetsk,53.7557,87.1099,539616,Russia,RU,643,151,Eastern Europe,EU,Europe,,1,,1,
520555,Nizhny Novgorod,Nizhniy Novgorod,56.32867,44.00205,1284164,Russia,RU,643,151,Eastern Europe,EU,Europe,,1,,1,
524901,Moscow,Moscow,55.75222,37.61556,10381222,Russia,RU,643,151,Eastern Europe,EU,Europe,1,1,,1,
511196,Molotov,Perm,58.01046,56.25017,982419,Russia,RU,643,151,Eastern Europe,EU,Europe,,1,,1,
532096,Makhachkala,Makhachkala,42.97638,47.50236,497959,Russia,RU,643,151,Eastern Europe,EU,Europe,,1,,1,
1502026,Krasnoyarsk,Krasnoyarsk,56.01839,92.86717,927200,Russia,RU,643,151,Eastern Europe,EU,Europe,,1,,1,
542420,Krasnodar,Krasnodar,45.04484,38.97603,649851,Russia,RU,643,151,Eastern Europe,EU,Europe,,1,,1,
2022890,Khabarovsk,Khabarovsk,48.48272,135.08379,579000,Russia,RU,643,151,Eastern Europe,EU,Europe,,1,,1,
1503901,Kemerovo,Kemerovo,55.33333,86.08333,477090,Russia,RU,643,151,Eastern Europe,EU,Europe,,1,,1,
551487,Kazan,Kazan,55.78874,49.12214,1104738,Russia,RU,643,151,Eastern Europe,EU,Europe,,1,,1,
554840,Izhevsk,Izhevsk,56.84976,53.20448,631038,Russia,RU,643,151,Eastern Europe,EU,Europe,,1,,1,
554840,Izhevsk,Izhevsk,56.84976,53.20448,631038,Russia,RU,643,151,Eastern Europe,EU,Europe,,1,,1,
2023469,Irkutsk,Irkutsk,52.29778,104.29639,586695,Russia,RU,643,151,Eastern Europe,EU,Europe,,1,,1,
1508291,Chelyabinsk,Chelyabinsk,55.15402,61.42915,1062919,Russia,RU,643,151,Eastern Europe,EU,Europe,,1,,1,
1510853,Barnaul,Barnaul,53.36056,83.76361,599579,Russia,RU,643,151,Eastern Europe,EU,Europe,,1,,1,
202061,Kigali,Kigali,-1.94995,30.05885,745261,Rwanda,RW,646,14,Eastern Africa,AF,Africa,1,,1,1,
202217,Gitarama,Gitarama,-2.07444,29.75667,87613,Rwanda,RW,646,14,Eastern Africa,AF,Africa,,,1,1,
3579132,Gustavia,Gustavia,17.89618,-62.84978,5988,Saint Barthélemy,BL,652,29,Caribbean,SA,South America,1,,1,,1
3370903,Jamestown,Jamestown,-15.93872,-5.71675,637,Saint Helena,SH,654,11,Western Africa,AF,Africa,1,,1,,1
3575551,Basseterre,Basseterre,17.29484,-62.7261,12920,Saint Kitts and Nevis,KN,659,29,Caribbean,SA,South America,1,,1,,1
3576854,Bisée,Bisée,14.01667,-60.96667,12980,Saint Lucia,LC,662,29,Caribbean,SA,South America,,,1,,1
3578544,Rambaud,Rambaud,18.08066,-63.06674,0,Saint Martin,MF,663,29,Caribbean,SA,South America,,,1,,1
3578851,Marigot,Marigot,18.06667,-63.08333,5700,Saint Martin,MF,663,29,Caribbean,SA,South America,,,1,,1
3424934,Saint-Pierre,Saint-Pierre,46.77914,-56.1773,6200,Saint Pierre and Miquelon,PM,612,61,Polynesia,OC,Oceania,1,1,,,1
3577887,Kingstown,Kingstown,13.15872,-61.22475,24518,Saint Vincent and the Grenadines,VC,670,29,Caribbean,SA,South America,1,,1,,1
4035413,Apia,Apia,-13.83333,-171.76666,40407,Samoa,WS,882,61,Polynesia,OC,Oceania,1,,1,,1
3168070,San Marino,San Marino,43.93667,12.44639,4500,San Marino,SM,674,39,Southern Europe,EU,Europe,1,1,,1,
2410763,São Tomé,São Tomé,0.33654,6.72732,53300,São Tomé and Príncipe,ST,678,17,Middle Africa,AF,Africa,1,,1,1,
107968,Ta'if,Ta’if,21.27028,40.41583,530848,Saudi Arabia,SA,682,145,Western Asia,AS,Asia,,,1,1,
108410,Riyadh,Riyadh,24.68773,46.72185,4205961,Saudi Arabia,SA,682,145,Western Asia,AS,Asia,1,,1,1,
109223,Medina,Medina,24.46861,39.61417,1300000,Saudi Arabia,SA,682,145,Western Asia,AS,Asia,,,1,1,
104515,Mecca,Mecca,21.42667,39.82611,1323624,Saudi Arabia,SA,682,145,Western Asia,AS,Asia,,,1,1,
105343,Jeddah,Jeddah,21.51694,39.21917,2867446,Saudi Arabia,SA,682,145,Western Asia,AS,Asia,,,1,1,
110336,Dammam,Dammam,26.43442,50.10326,768602,Saudi Arabia,SA,682,145,Western Asia,AS,Asia,,,1,1,
2244799,Thiès Nones,Thiès Nones,14.78333,-16.96667,252320,Senegal,SN,686,11,Western Africa,AF,Africa,,,1,,1
2253354,Dakar,Dakar,14.6937,-17.44406,2476400,Senegal,SN,686,11,Western Africa,AF,Africa,1,,1,,1
3194360,Novi Sad,Novi Sad,45.25167,19.83694,215400,Serbia,RS,688,39,Southern Europe,EU,Europe,,1,,1,
792680,Belgrade,Belgrade,44.80401,20.46513,1273651,Serbia,RS,688,39,Southern Europe,EU,Europe,1,1,,1,
241131,Victoria,Victoria,-4.61667,55.45,22881,Seychelles,SC,690,14,Eastern Africa,AF,Africa,1,,1,1,
2409306,Freetown,Freetown,8.484,-13.22994,802639,Sierra Leone,SL,694,11,Western Africa,AF,Africa,1,,1,,1
2410048,Bo,Bo,7.96472,-11.73833,174354,Sierra Leone,SL,694,11,Western Africa,AF,Africa,,,1,,1
1880252,Singapore,Singapore,1.28967,103.85007,3547809,Singapore,SG,702,35,South-Eastern Asia,AS,Asia,1,1,,1,
3513392,Philipsburg,Philipsburg,18.026,-63.04582,1400,Sint Maarten,SX,534,29,Caribbean,SA,South America,1,,1,,1
724443,Košice,Košice,48.71395,21.25808,236563,Slovakia,SK,703,151,Eastern Europe,EU,Europe,,1,,1,
3060972,Bratislava,Bratislava,48.14816,17.10674,423737,Slovakia,SK,703,151,Eastern Europe,EU,Europe,1,1,,1,
3195506,Maribor,Maribor,46.55472,15.64667,89056,Slovenia,SI,705,39,Southern Europe,EU,Europe,,1,,1,
3196359,Ljubljana,Ljubljana,46.05108,14.50513,255115,Slovenia,SI,705,39,Southern Europe,EU,Europe,1,1,,1,
2108502,Honiara,Honiara,-9.43333,159.95,56298,Solomon Islands,SB,90,54,Melanesia,OC,Oceania,1,,1,1,
53654,Mogadishu,Mogadishu,2.03711,45.34375,2587183,Somalia,SO,706,14,Eastern Africa,AF,Africa,1,,1,1,
57289,Hargeysa,Hargeysa,9.56,44.065,477876,Somalia,SO,706,14,Eastern Africa,AF,Africa,,,1,1,
64013,Bosaso,Bosaso,11.28421,49.18158,74287,Somalia,SO,706,14,Eastern Africa,AF,Africa,,,1,1,
953781,Soweto,Soweto,-26.26781,27.85849,1695047,South Africa,ZA,710,18,Southern Africa,AF,Africa,,,1,1,
964137,Pretoria,Pretoria,-25.74486,28.18783,1619438,South Africa,ZA,710,18,Southern Africa,AF,Africa,1,,1,1,
964420,Port Elizabeth,Port Elizabeth,-33.91799,25.57007,967677,South Africa,ZA,710,18,Southern Africa,AF,Africa,,,1,1,
993800,Johannesburg,Johannesburg,-26.20227,28.04363,2026469,South Africa,ZA,710,18,Southern Africa,AF,Africa,,,1,1,
1007311,Durban,Durban,-29.8579,31.0292,3120282,South Africa,ZA,710,18,Southern Africa,AF,Africa,,,1,1,
3369157,Cape Town,Cape Town,-33.92584,18.42322,3433441,South Africa,ZA,710,18,Southern Africa,AF,Africa,1,,1,1,
1018725,Bloemfontein,Bloemfontein,-29.1167,26.2167,534771,South Africa,ZA,710,18,Southern Africa,AF,Africa,1,,1,1,
3426466,Grytviken,Grytviken,-54.28111,-36.5092,2,South Georgia and the South Sandwich Islands,GS,,,,SA,South America,1,,1,,1
1832427,Yongin,Yongin,37.23417,127.20639,0,South Korea,KR,410,30,Eastern Asia,AS,Asia,,1,,1,
1833747,Ulsan,Ulsan,35.53722,129.31667,962865,South Korea,KR,410,30,Eastern Asia,AS,Asia,,1,,1,
1835553,Suwon-si,Suwon-si,37.29111,127.00889,1242724,South Korea,KR,410,30,Eastern Asia,AS,Asia,,1,,1,
1835848,Seoul,Seoul,37.566,126.9784,10349312,South Korea,KR,410,30,Eastern Asia,AS,Asia,1,1,,1,
1897000,Seongnam-si,Seongnam-si,37.43861,127.13778,1031935,South Korea,KR,410,30,Eastern Asia,AS,Asia,,1,,1,
1845457,Jeonju,Jeonju,35.82194,127.14889,711424,South Korea,KR,410,30,Eastern Asia,AS,Asia,,1,,1,
1843564,Incheon,Incheon,37.45646,126.70515,2628000,South Korea,KR,410,30,Eastern Asia,AS,Asia,,1,,1,
1841811,Gwangju,Gwangju,35.15472,126.91556,1416938,South Korea,KR,410,30,Eastern Asia,AS,Asia,,1,,1,
1842485,Goyang-si,Goyang-si,37.65639,126.835,1073069,South Korea,KR,410,30,Eastern Asia,AS,Asia,,1,,1,
1835235,Daejeon,Daejeon,36.32139,127.41972,1475221,South Korea,KR,410,30,Eastern Asia,AS,Asia,,1,,1,
1835329,Daegu,Daegu,35.87028,128.59111,2566540,South Korea,KR,410,30,Eastern Asia,AS,Asia,,1,,1,
1845604,Cheongju-si,Cheongju-si,36.63722,127.48972,634596,South Korea,KR,410,30,Eastern Asia,AS,Asia,,1,,1,
1838524,Busan,Busan,35.10278,129.04028,3678555,South Korea,KR,410,30,Eastern Asia,AS,Asia,,1,,1,
1838716,Bucheon-si,Bucheon-si,37.49889,126.78306,850731,South Korea,KR,410,30,Eastern Asia,AS,Asia,,1,,1,
1846918,Ansan-si,Ansan-si,37.32361,126.82194,650728,South Korea,KR,410,30,Eastern Asia,AS,Asia,,1,,1,
363619,Yei,Yei,4.09504,30.67792,40382,South Sudan,SS,728,14,Eastern Africa,AF,Africa,,,1,1,
373303,Juba,Juba,4.85165,31.58247,300000,South Sudan,SS,728,14,Eastern Africa,AF,Africa,1,,1,1,
2509954,Valencia,Valencia,39.46975,-0.37739,814208,Spain,ES,724,39,Southern Europe,EU,Europe,,1,,1,1
2510911,Seville,Sevilla,37.38283,-5.97317,703206,Spain,ES,724,39,Southern Europe,EU,Europe,,1,,1,1
3104324,Saragossa,Zaragoza,41.65606,-0.87734,674317,Spain,ES,724,39,Southern Europe,EU,Europe,,1,,1,1
3117735,Madrid,Madrid,40.4165,-3.70256,3255944,Spain,ES,724,39,Southern Europe,EU,Europe,1,1,,1,1
3128760,Barcelona,Barcelona,41.38879,2.15899,1621537,Spain,ES,724,39,Southern Europe,EU,Europe,,1,,1,1
1234569,Mount Lavinia,Mount Lavinia,6.83389,79.86444,0,Sri Lanka,LK,144,34,Southern Asia,AS,Asia,,,1,1,
1234633,Moratuwa,Moratuwa,6.773,79.8816,185031,Sri Lanka,LK,144,34,Southern Asia,AS,Asia,,,1,1,
1248991,Colombo,Colombo,6.93194,79.84778,648034,Sri Lanka,LK,144,34,Southern Asia,AS,Asia,1,,1,1,
365137,Omdurman,Omdurman,15.64453,32.47773,1200000,Sudan,SD,729,15,Northern Africa,AF,Africa,,,1,1,
379252,Khartoum,Khartoum,15.55177,32.53241,1974647,Sudan,SD,729,15,Northern Africa,AF,Africa,1,,1,1,
3383330,Paramaribo,Paramaribo,5.86638,-55.16682,223757,Suriname,SR,740,5,South America,SA,South America,1,,1,,1
3383714,Lelydorp,Lelydorp,5.7,-55.23333,18223,Suriname,SR,740,5,South America,SA,South America,,,1,,1
2729907,Longyearbyen,Longyearbyen,78.22,15.65,2060,Svalbard and Jan Mayen,SJ,744,154,Northern Europe,EU,Europe,1,1,,1,
934985,Mbabane,Mbabane,-26.31667,31.13333,76218,Swaziland,SZ,748,18,Southern Africa,AF,Africa,1,,1,1,
934995,Manzini,Manzini,-26.49884,31.38004,110537,Swaziland,SZ,748,18,Southern Africa,AF,Africa,,,1,1,
935048,Lobamba,Lobamba,-26.46667,31.2,4557,Swaziland,SZ,748,18,Southern Africa,AF,Africa,1,,1,1,
2673730,Stockholm,Stockholm,59.33258,18.0649,1253309,Sweden,SE,752,154,Northern Europe,EU,Europe,1,1,,1,
2692969,Malmo,Malmö,55.60587,13.00073,261548,Sweden,SE,752,154,Northern Europe,EU,Europe,,1,,1,
2711537,Gothenburg,Göteborg,57.70716,11.96679,504084,Sweden,SE,752,154,Northern Europe,EU,Europe,,1,,1,
2657896,Zurich,Zürich,47.36667,8.55,341730,Switzerland,CH,756,155,Western Europe,EU,Europe,,1,,1,
2660646,Geneva,Genève,46.20222,6.14569,183981,Switzerland,CH,756,155,Western Europe,EU,Europe,,1,,1,
2661552,Bern,Bern,46.94809,7.44744,121631,Switzerland,CH,756,155,Western Europe,EU,Europe,1,1,,1,
173576,Latakia,Latakia,35.53168,35.79011,340181,Syria,SY,760,145,Western Asia,AS,Asia,,,1,1,
169389,Idlib,Idlib,35.93062,36.63393,128840,Syria,SY,760,145,Western Asia,AS,Asia,,,1,1,
169577,Homs,Homs,34.72682,36.72339,775404,Syria,SY,760,145,Western Asia,AS,Asia,,,1,1,
170017,Hama,Ḩamāh,35.13179,36.75783,460602,Syria,SY,760,145,Western Asia,AS,Asia,,,1,1,
170794,Deir ez-Zor,Deir ez-Zor,35.33588,40.14084,242565,Syria,SY,760,145,Western Asia,AS,Asia,,,1,1,
170905,Dar‘ā,Dar‘ā,32.61889,36.10213,97969,Syria,SY,760,145,Western Asia,AS,Asia,,,1,1,
170654,Damascus,Damascus,33.5102,36.29128,1569394,Syria,SY,760,145,Western Asia,AS,Asia,1,,1,1,
170063,Aleppo,Aleppo,36.20124,37.16117,1602264,Syria,SY,760,145,Western Asia,AS,Asia,,,1,1,
173811,Al Ḩasakah,Al Ḩasakah,36.50237,40.74772,81539,Syria,SY,760,145,Western Asia,AS,Asia,,,1,1,
1668341,Taipei,Taipei,25.04776,121.53185,7871900,Taiwan,TW,,30,Eastern Asia,AS,Asia,1,1,,1,
1668399,Taichung,Taichung,24.1469,120.6839,1040725,Taiwan,TW,,30,Eastern Asia,AS,Asia,,1,,1,
1673820,Kaohsiung City,Kaohsiung,22.61626,120.31333,1519711,Taiwan,TW,,30,Eastern Asia,AS,Asia,,1,,1,
1514879,Khujand,Khŭjand,40.28256,69.62216,144865,Tajikistan,TJ,762,143,Central Asia,AS,Asia,,,1,1,
1221874,Dushanbe,Dushanbe,38.53575,68.77905,679400,Tajikistan,TJ,762,143,Central Asia,AS,Asia,1,,1,1,
152224,Mwanza,Mwanza,-2.51667,32.9,436801,Tanzania,TZ,834,14,Eastern Africa,AF,Africa,,,1,1,
154380,Mbeya,Mbeya,-8.9,33.45,291649,Tanzania,TZ,834,14,Eastern Africa,AF,Africa,,,1,1,
160196,Dodoma,Dodoma,-6.17221,35.73947,180541,Tanzania,TZ,834,14,Eastern Africa,AF,Africa,1,,1,1,
160263,Dar es Salaam,Dar es Salaam,-6.82349,39.26951,2698652,Tanzania,TZ,834,14,Eastern Africa,AF,Africa,,,1,1,
161325,Arusha,Arusha,-3.36667,36.68333,341136,Tanzania,TZ,834,14,Eastern Africa,AF,Africa,,,1,1,
1605239,Udon Thani,Udon Thani,17.41567,102.78589,247231,Thailand,TH,764,35,South-Eastern Asia,AS,Asia,,,1,1,
1608048,Pak Kret,Pak Kret,13.91301,100.49883,182926,Thailand,TH,764,35,South-Eastern Asia,AS,Asia,,,1,1,
1608133,Nonthaburi City,Mueang Nonthaburi,13.86075,100.51477,291555,Thailand,TH,764,35,South-Eastern Asia,AS,Asia,,,1,1,
1608529,Nakhon Ratchasima,Nakhon Ratchasima,14.97066,102.10196,208781,Thailand,TH,764,35,South-Eastern Asia,AS,Asia,,,1,1,
1610780,Hat Yai,Hat Yai,7.00836,100.47668,191696,Thailand,TH,764,35,South-Eastern Asia,AS,Asia,,,1,1,
1153671,Chiang Mai,Chiang Mai,18.79038,98.98468,200952,Thailand,TH,764,35,South-Eastern Asia,AS,Asia,,,1,1,
1609350,Bangkok,Bangkok,13.75398,100.50144,5104476,Thailand,TH,764,35,South-Eastern Asia,AS,Asia,1,,1,1,
2364104,Sokodé,Sokodé,8.98333,1.13333,117811,Togo,TG,768,11,Western Africa,AF,Africa,,,1,1,
2365267,Lomé,Lomé,6.13748,1.21227,749700,Togo,TG,768,11,Western Africa,AF,Africa,1,,1,1,
7522183,Atafu,Atafu Village,-8.54212,-172.51591,524,Tokelau,TK,772,61,Polynesia,OC,Oceania,1,,1,,1
4032402,Nuku'alofa,Nuku‘alofa,-21.13938,-175.2018,22400,Tonga,TO,776,61,Polynesia,OC,Oceania,1,,1,1,
3573890,Port of Spain,Port-of-Spain,10.66668,-61.51889,49031,Trinidad and Tobago,TT,780,29,Caribbean,SA,South America,1,,1,,1
3574810,Chaguanas,Chaguanas,10.51667,-61.41667,67433,Trinidad and Tobago,TT,780,29,Caribbean,SA,South America,,,1,,1
2464470,Tunis,Tunis,36.81897,10.16579,693210,Tunisia,TN,788,15,Northern Africa,AF,Africa,1,,1,,1
2467454,Sfax,Sfax,34.74056,10.76028,277278,Tunisia,TN,788,15,Northern Africa,AF,Africa,,,1,,1
740264,Samsun,Samsun,41.28667,36.33,394050,Turkey,TR,792,145,Western Asia,AS,Asia,,1,,1,
304531,Mersin,Mercin,36.79526,34.61792,537842,Turkey,TR,792,145,Western Asia,AS,Asia,,1,,1,
306571,Konya,Konya,37.87135,32.48464,875530,Turkey,TR,792,145,Western Asia,AS,Asia,,1,,1,
308464,Kayseri,Kayseri,38.73222,35.48528,592840,Turkey,TR,792,145,Western Asia,AS,Asia,,1,,1,
311046,Izmir,İzmir,38.41273,27.13838,2500603,Turkey,TR,792,145,Western Asia,AS,Asia,,1,,1,
745044,Istanbul,İstanbul,41.01384,28.94966,11174257,Turkey,TR,792,145,Western Asia,AS,Asia,,1,,1,
314830,Gaziantep,Gaziantep,37.05944,37.3825,1065975,Turkey,TR,792,145,Western Asia,AS,Asia,,1,,1,
315202,Eskişehir,Eskişehir,39.77667,30.52056,514869,Turkey,TR,792,145,Western Asia,AS,Asia,,1,,1,
316541,Diyarbakır,Diyarbakır,37.91583,40.21889,644763,Turkey,TR,792,145,Western Asia,AS,Asia,,1,,1,
750269,Bursa,Bursa,40.19266,29.08403,1412701,Turkey,TR,792,145,Western Asia,AS,Asia,,1,,1,
323777,Antalya,Antalya,36.90812,30.69556,758188,Turkey,TR,792,145,Western Asia,AS,Asia,,1,,1,
323786,Ankara,Ankara,39.91987,32.85427,3517182,Turkey,TR,792,145,Western Asia,AS,Asia,1,1,,1,
325363,Adana,Adana,37.00167,35.32889,1248988,Turkey,TR,792,145,Western Asia,AS,Asia,,1,,1,
1219649,Turkmenabat,Türkmenabat,39.07328,63.57862,234817,Turkmenistan,TM,795,143,Central Asia,AS,Asia,,,1,1,
162183,Ashgabat,Ashgabat,37.95,58.38333,727700,Turkmenistan,TM,795,143,Central Asia,AS,Asia,1,,1,1,
3576994,Cockburn Town,Cockburn Town,21.46122,-71.14188,3720,Turks and Caicos Islands,TC,796,29,Caribbean,SA,South America,1,,1,,1
2110394,Funafuti,Funafuti,-8.52425,179.19417,4492,Tuvalu,TV,798,61,Polynesia,OC,Oceania,1,,1,1,
4795467,Charlotte Amalie,Charlotte Amalie,18.3419,-64.9307,20000,U.S. Virgin Islands,VI,850,29,Caribbean,SA,South America,1,,1,,1
232422,Kampala,Kampala,0.31628,32.58219,1353189,Uganda,UG,800,14,Eastern Africa,AF,Africa,1,,1,1,
233346,Gulu,Gulu,2.77457,32.29899,146858,Uganda,UG,800,14,Eastern Africa,AF,Africa,,,1,1,
687700,Zaporizhia,Zaporizhzhya,47.82289,35.19031,796217,Ukraine,UA,804,151,Eastern Europe,EU,Europe,,,1,1,
698740,Odessa,Odessa,46.47747,30.73262,1001558,Ukraine,UA,804,151,Eastern Europe,EU,Europe,,,1,1,
702550,Lviv,L'viv,49.83826,24.02324,717803,Ukraine,UA,804,151,Eastern Europe,EU,Europe,,,1,1,
703845,Kryvyi Rih,Kryvyy Rih,47.90966,33.38044,652380,Ukraine,UA,804,151,Eastern Europe,EU,Europe,,,1,1,
703448,Kiev,Kiev,50.45466,30.5238,2797553,Ukraine,UA,804,151,Eastern Europe,EU,Europe,1,,1,1,
706483,Kharkiv,Kharkiv,49.98081,36.25272,1430885,Ukraine,UA,804,151,Eastern Europe,EU,Europe,,,1,1,
709717,Donetsk,Donets’k,48.023,37.80224,1024700,Ukraine,UA,804,151,Eastern Europe,EU,Europe,,,1,1,
709930,Dnipropetrovsk,Dnipropetrovsk,48.45,34.98333,1032822,Ukraine,UA,804,151,Eastern Europe,EU,Europe,,,1,1,
292223,Dubai,Dubai,25.25817,55.30472,1137347,United Arab Emirates,AE,784,145,Western Asia,AS,Asia,,,1,1,
292968,Abu Dhabi,Abu Dhabi,24.46667,54.36667,603492,United Arab Emirates,AE,784,145,Western Asia,AS,Asia,1,,1,1,
2634910,Wakefield,Wakefield,53.68331,-1.49768,78978,United Kingdom,GB,826,154,Northern Europe,EU,Europe,,1,,1,1
2638077,Sheffield,Sheffield,53.38297,-1.4659,447047,United Kingdom,GB,826,154,Northern Europe,EU,Europe,,1,,1,1
2641170,Nottingham,Nottingham,52.9536,-1.15047,246654,United Kingdom,GB,826,154,Northern Europe,EU,Europe,,1,,1,1
2643123,Manchester,Manchester,53.48095,-2.23743,395515,United Kingdom,GB,826,154,Northern Europe,EU,Europe,,1,,1,1
2643743,London,London,51.50853,-0.12574,7556900,United Kingdom,GB,826,154,Northern Europe,EU,Europe,1,1,,1,1
2644210,Liverpool,Liverpool,53.41058,-2.97794,468945,United Kingdom,GB,826,154,Northern Europe,EU,Europe,,1,,1,1
2644688,Leeds,Leeds,53.79648,-1.54785,455123,United Kingdom,GB,826,154,Northern Europe,EU,Europe,,1,,1,1
2648579,Glasgow,Glasgow,55.86515,-4.25763,610268,United Kingdom,GB,826,154,Northern Europe,EU,Europe,,1,,1,1
2650225,Edinburgh,Edinburgh,55.95206,-3.19648,435791,United Kingdom,GB,826,154,Northern Europe,EU,Europe,,1,,1,1
2652221,Coventry,Coventry,52.40656,-1.51217,308313,United Kingdom,GB,826,154,Northern Europe,EU,Europe,,1,,1,1
2653822,Cardiff,Cardiff,51.48,-3.18,302139,United Kingdom,GB,826,154,Northern Europe,EU,Europe,,1,,1,1
2654675,Bristol,Bristol,51.45523,-2.59665,430713,United Kingdom,GB,826,154,Northern Europe,EU,Europe,,1,,1,1
2655603,Birmingham,Birmingham,52.48142,-1.89983,984333,United Kingdom,GB,826,154,Northern Europe,EU,Europe,,1,,1,1
4140963,Washington,"Washington, D. C.",38.89511,-77.03637,601723,United States,US,840,21,North America,NA,North America,1,1,,,1
4174757,Tampa,Tampa,27.94752,-82.45843,335709,United States,US,840,21,North America,NA,North America,,1,,,1
4407066,St Louis,St. Louis,38.62727,-90.19789,319294,United States,US,840,21,North America,NA,North America,,1,,,1
5809844,Seattle,Seattle,47.60621,-122.33207,608660,United States,US,840,21,North America,NA,North America,,1,,,1
5392171,San Jose,San Jose,37.33939,-121.89496,945942,United States,US,840,21,North America,NA,North America,,1,,,1
5391959,San Francisco,San Francisco,37.77493,-122.41942,805235,United States,US,840,21,North America,NA,North America,,1,,,1
5391811,San Diego,San Diego,32.71533,-117.15726,1307402,United States,US,840,21,North America,NA,North America,,1,,,1
4726206,San Antonio,San Antonio,29.42412,-98.49363,1327407,United States,US,840,21,North America,NA,North America,,1,,,1
5746545,Portland,Portland,45.52345,-122.67621,583776,United States,US,840,21,North America,NA,North America,,1,,,1
5308655,Phoenix,Phoenix,33.44838,-112.07404,1445632,United States,US,840,21,North America,NA,North America,,1,,,1
4560349,Philadelphia,Philadelphia,39.95234,-75.16379,1526006,United States,US,840,21,North America,NA,North America,,1,,,1
4544349,Oklahoma City,Oklahoma City,35.46756,-97.51643,579999,United States,US,840,21,North America,NA,North America,,1,,,1
5128581,New York,New York City,40.71427,-74.00597,8175133,United States,US,840,21,North America,NA,North America,,1,,,1
4644585,Nashville,Nashville,36.16589,-86.78444,530852,United States,US,840,21,North America,NA,North America,,1,,,1
5037649,Minneapolis,Minneapolis,44.97997,-93.26384,382578,United States,US,840,21,North America,NA,North America,,1,,,1
5263045,Milwaukee,Milwaukee,43.0389,-87.90647,594833,United States,US,840,21,North America,NA,North America,,1,,,1
4164138,Miami,Miami,25.77427,-80.19366,399457,United States,US,840,21,North America,NA,North America,,1,,,1
4641239,Memphis,Memphis,35.14953,-90.04898,646889,United States,US,840,21,North America,NA,North America,,1,,,1
4299276,Louisville,Louisville,38.25424,-85.75941,243639,United States,US,840,21,North America,NA,North America,,1,,,1
5368361,Los Angeles,Los Angeles,34.05223,-118.24368,3792621,United States,US,840,21,North America,NA,North America,,1,,,1
5506956,Las Vegas,Las Vegas,36.17497,-115.13722,583756,United States,US,840,21,North America,NA,North America,,1,,,1
4160021,Jacksonville,Jacksonville,30.33218,-81.65565,821784,United States,US,840,21,North America,NA,North America,,1,,,1
4259418,Indianapolis,Indianapolis,39.76838,-86.15804,829718,United States,US,840,21,North America,NA,North America,,1,,,1
4699066,Houston,Houston,29.76328,-95.36327,2099451,United States,US,840,21,North America,NA,North America,,1,,,1
4691930,Fort Worth,Fort Worth,32.72541,-97.32085,741206,United States,US,840,21,North America,NA,North America,,1,,,1
5520993,El Paso,El Paso,31.75872,-106.48693,649121,United States,US,840,21,North America,NA,North America,,1,,,1
4990729,Detroit,Detroit,42.33143,-83.04575,713777,United States,US,840,21,North America,NA,North America,,1,,,1
5419384,Denver,Denver,39.73915,-104.9847,600158,United States,US,840,21,North America,NA,North America,,1,,,1
4684888,Dallas,Dallas,32.78306,-96.80667,1197816,United States,US,840,21,North America,NA,North America,,1,,,1
4509177,Columbus,Columbus,39.96118,-82.99879,787033,United States,US,840,21,North America,NA,North America,,1,,,1
4887398,Chicago,Chicago,41.85003,-87.65005,2695598,United States,US,840,21,North America,NA,North America,,1,,,1
4930956,Boston,Boston,42.35843,-71.05977,617594,United States,US,840,21,North America,NA,North America,,1,,,1
4347778,Baltimore,Baltimore,39.29038,-76.61219,620961,United States,US,840,21,North America,NA,North America,,1,,,1
4671654,Austin,Austin,30.26715,-97.74306,790390,United States,US,840,21,North America,NA,North America,,1,,,1
5318313,Tucson,Tucson,32.22174,-110.92648,520116,United States,US,840,21,North America,NA,North America,,1,,,1
4180439,Atlanta,Atlanta,33.749,-84.38798,420003,United States,US,840,21,North America,NA,North America,,1,,,1
3440714,Salto,Salto,-31.38333,-57.96667,99823,Uruguay,UY,858,5,South America,SA,South America,,,1,,1
3441575,Montevideo,Montevideo,-34.90328,-56.18816,1270737,Uruguay,UY,858,5,South America,SA,South America,1,,1,,1
1512569,Tashkent,Tashkent,41.26465,69.21627,1978028,Uzbekistan,UZ,860,143,Central Asia,AS,Asia,1,,1,1,
1513157,Namangan,Namangan,40.9983,71.67257,432456,Uzbekistan,UZ,860,143,Central Asia,AS,Asia,,,1,1,
2135171,Port Vila,Port-Vila,-17.73381,168.32188,35901,Vanuatu,VU,548,54,Melanesia,OC,Oceania,1,,1,1,
2136150,Luganville,Luganville,-15.51989,167.16235,13397,Vanuatu,VU,548,54,Melanesia,OC,Oceania,,,1,1,
6691831,Vatican,Vatican City,41.90236,12.45332,829,Vatican City,VA,336,39,Southern Europe,EU,Europe,1,1,,1,
3625549,Valencia,Valencia,10.16202,-68.00765,1385083,Venezuela,VE,862,5,South America,SA,South America,,,1,,1
3633009,Maracaibo,Maracaibo,10.63167,-71.64056,2225000,Venezuela,VE,862,5,South America,SA,South America,,,1,,1
3645528,Ciudad Guayana,Ciudad Guayana,8.35122,-62.64102,746535,Venezuela,VE,862,5,South America,SA,South America,,,1,,1
3645528,Ciudad Guayana,Ciudad Guayana,8.35122,-62.64102,746535,Venezuela,VE,862,5,South America,SA,South America,,,1,,1
3646738,Caracas,Caracas,10.48801,-66.87919,3000000,Venezuela,VE,862,5,South America,SA,South America,1,,1,,1
3648522,Barquisimeto,Barquisimeto,10.07389,-69.32278,809490,Venezuela,VE,862,5,South America,SA,South America,,,1,,1
1566083,Ho Chi Minh City,Ho Chi Minh City,10.82302,106.62965,3467331,Vietnam,VN,704,35,South-Eastern Asia,AS,Asia,,,1,1,
1581130,Hanoi,Hanoi,21.0245,105.84117,1431270,Vietnam,VN,704,35,South-Eastern Asia,AS,Asia,1,,1,1,
1581298,Haiphong,Haiphong,20.86481,106.68345,602695,Vietnam,VN,704,35,South-Eastern Asia,AS,Asia,,,1,1,
1583992,Da Nang,Da Nang,16.06778,108.22083,752493,Vietnam,VN,704,35,South-Eastern Asia,AS,Asia,,,1,1,
1586203,Can Tho,Cần Thơ,10.03333,105.78333,259598,Vietnam,VN,704,35,South-Eastern Asia,AS,Asia,,,1,1,
4034821,Mata-Utu,Mata-Utu,-13.28163,-176.17453,1200,Wallis and Futuna,WF,876,61,Polynesia,OC,Oceania,1,,1,1,
2462881,El Aaiún,Laâyoune / El Aaiún,27.16224,-13.20315,196331,Western Sahara,EH,732,15,Northern Africa,AF,Africa,1,,1,1,
2463447,Dakhla,Dakhla,23.68477,-15.95798,75000,Western Sahara,EH,732,15,Northern Africa,AF,Africa,,,1,1,
71137,Sanaa,Sanaa,15.35472,44.20667,1937451,Yemen,YE,887,145,Western Asia,AS,Asia,1,,1,1,
415189,Aden,Aden,12.77944,45.03667,550602,Yemen,YE,887,145,Western Asia,AS,Asia,,,1,1,
909137,Lusaka,Lusaka,-15.40669,28.28713,1267440,Zambia,ZM,894,14,Eastern Africa,AF,Africa,1,,1,1,
911148,Kitwe,Kitwe,-12.80243,28.21323,400914,Zambia,ZM,894,14,Eastern Africa,AF,Africa,,,1,1,
890299,Harare,Harare,-17.82772,31.05337,1542813,Zimbabwe,ZW,716,14,Eastern Africa,AF,Africa,1,,1,1,
894701,Bulawayo,Bulawayo,-20.15,28.58333,699385,Zimbabwe,ZW,716,14,Eastern Africa,AF,Africa,,,1,1,
